{"version": 0.6, "generator": "Overpass API 0.7.61.5 4133829e", "osm3s": {"timestamp_osm_base": "2023-11-09T09:28:34Z", "copyright": "The data included in this document is from www.openstreetmap.org. The data is made available under ODbL."}, "elements": [{"type": "node", "id": 50807898, "lat": 60.1950787, "lon": 25.0335278, "tags": {"addr:city": "Helsinki", "addr:housenumber": "2", "addr:postcode": "00880", "addr:street": "Linnanrakentajantie", "amenity": "library", "internet_access": "yes", "level": "1", "name": "Herttoniemen kirjasto", "name:fi": "Herttoniemen kirjasto", "name:sv": "Herton\u00e4s bibliotek", "operator": "Helmet kirjastot", "operator:type": "public"}}, {"type": "node", "id": 50821497, "lat": 60.1945206, "lon": 25.0528138, "tags": {"addr:city": "Helsinki", "addr:housenumber": "2", "addr:postcode": "00820", "addr:street": "Roihuvuorentie", "amenity": "library", "name": "Roihuvuoren kirjasto", "name:fi": "Roihuvuoren kirjasto", "name:sv": "Kasbergets bibliotek", "website": "https://www.helmet.fi/fi-FI/Kirjastot_ja_palvelut/Roihuvuoren_kirjasto"}}, {"type": "node", "id": 54043622, "lat": 60.2275287, "lon": 25.0130252, "tags": {"amenity": "library", "name": "Viikin kirjasto", "name:fi": "Viikin kirjasto", "name:ru": "\u0431\u0438\u0431\u043b\u0438\u043e\u0442\u0435\u043a\u0430 \u0412\u0438\u0438\u043a\u043a\u0438", "name:sv": "Viks bibliotek", "wheelchair": "yes"}}, {"type": "node", "id": 55891898, "lat": 60.2108404, "lon": 24.7257877, "tags": {"addr:city": "Kauniainen", "addr:housenumber": "6", "addr:postcode": "02700", "addr:street": "Thurmaninaukio", "amenity": "library", "email": "kirjasto@kauniainen.fi", "name": "Kauniaisten kaupunginkirjasto", "name:fi": "Kauniaisten kirjasto", "name:sv": "Grankulla bibliotek", "opening_hours": "Mo,Th 11:00-19:00; Tu,We,Fr 11:00-18:00; Sa 10:00-15:00", "operator": "Helmet", "phone": "050 411 6514", "website": "https://www.helmet.fi/fi-FI/Kirjastot_ja_palvelut/Kauniaisten_kirjasto"}}, {"type": "node", "id": 60123861, "lat": 60.2377166, "lon": 25.0851575, "tags": {"addr:city": "Helsinki", "addr:housenumber": "4", "addr:postcode": "00940", "addr:street": "Ostostie", "amenity": "library", "description": "Stadin siistein kirjasto\n\nKontulan kirjasto on v\u00e4rik\u00e4s ja viihtyis\u00e4 l\u00e4hi\u00f6kirjasto Suomen suurimman kattamattoman ostarin Kontula-aukiolla.\n\nLoppuvuodesta 2018 kirjastomme sis\u00e4\u00e4ntulon kupeeseen laskeutui lent\u00e4v\u00e4ll\u00e4 matollaan yhteis\u00f6taiteilijan Heidi H\u00e4nnis", "email": "kontulan_kirjasto@hel.fi", "name": "Kontulan kirjasto", "name:de": "Kontula Bibliothek", "name:en": "Kontula Library", "name:es": "Kontula biblioteca", "name:fi": "Kontulan kirjasto", "name:sv": "G\u00e5rdsbacka bibliotek", "opening_hours": "Mo-Th 08:00-20:00; Fr 08:00-18:00; Sa 10:00-16:00", "operator": "Helmet", "phone": "+358 931085094", "website": "https://www.helmet.fi/fi-FI/Kirjastot_ja_palvelut/Kontulan_kirjasto"}}, {"type": "node", "id": 60257180, "lat": 60.2274705, "lon": 25.0130785}, {"type": "node", "id": 60257181, "lat": 60.2271634, "lon": 25.0129159}, {"type": "node", "id": 60257182, "lat": 60.2271728, "lon": 25.0128446}, {"type": "node", "id": 60257183, "lat": 60.2272094, "lon": 25.012864}, {"type": "node", "id": 60257184, "lat": 60.2272472, "lon": 25.0125828}, {"type": "node", "id": 60257185, "lat": 60.2273185, "lon": 25.0124016}, {"type": "node", "id": 60257186, "lat": 60.2274525, "lon": 25.0122542}, {"type": "node", "id": 60257187, "lat": 60.2276006, "lon": 25.0122603}, {"type": "node", "id": 60257188, "lat": 60.2277268, "lon": 25.0123892}, {"type": "node", "id": 60257189, "lat": 60.2277802, "lon": 25.0124956}, {"type": "node", "id": 60257190, "lat": 60.2278364, "lon": 25.0127148}, {"type": "node", "id": 60257191, "lat": 60.2278335, "lon": 25.013047}, {"type": "node", "id": 60257192, "lat": 60.2278106, "lon": 25.0131661}, {"type": "node", "id": 60257193, "lat": 60.2277266, "lon": 25.0133722}, {"type": "node", "id": 60257194, "lat": 60.2276188, "lon": 25.0134882}, {"type": "node", "id": 60257195, "lat": 60.2275684, "lon": 25.0135122}, {"type": "node", "id": 60257196, "lat": 60.2274189, "lon": 25.0134732}, {"type": "node", "id": 119230075, "lat": 60.1921039, "lon": 24.9628692}, {"type": "node", "id": 155521046, "lat": 60.2454018, "lon": 24.7693242}, {"type": "node", "id": 167268631, "lat": 60.2387865, "lon": 24.8759076, "tags": {"addr:city": "Helsinki", "addr:housenumber": "5", "addr:postcode": "00420", "addr:street": "Klaneettitie", "amenity": "library", "description:covid19": "Lainaaminen, palauttaminen ja varausten noutaminen on mahdollista 11.5. alkaen Kannelm\u00e4en kirjastossa.", "email": "kannelmaen_kirjasto@hel.fi", "name": "Kannelm\u00e4en kirjasto", "name:fi": "Kannelm\u00e4en kirjasto", "name:sv": "Gamlas bibliotek", "opening_hours": "Mo-Th 09:00-20:00, Fr 09:00-18:00, Sa 10:00-16:00", "opening_hours:covid19": "Mo-Fr 10:00-18:00, Sa 10:00-16:00", "operator": "Helmet", "operator:type": "public", "operator:wikidata": "Q11861998", "operator:wikipedia": "fi:Helmet-kirjasto", "phone": "09-3108 5042", "website": "https://www.helmet.fi/fi-FI/Kirjastot_ja_palvelut/Kannelmaen_kirjasto", "wheelchair": "yes"}}, {"type": "node", "id": 173740891, "lat": 60.2049326, "lon": 24.9624922}, {"type": "node", "id": 173740902, "lat": 60.205321, "lon": 24.9621096}, {"type": "node", "id": 173740903, "lat": 60.2050501, "lon": 24.9615489}, {"type": "node", "id": 173740905, "lat": 60.2048456, "lon": 24.9619494}, {"type": "node", "id": 175879297, "lat": 60.2324917, "lon": 24.8873685, "tags": {"addr:city": "Helsinki", "addr:housenumber": "4", "addr:postcode": "00440", "addr:street": "Kaupintie", "amenity": "library", "name": "Pohjois-Haagan kirjasto", "name:fi": "Pohjois-Haagan kirjasto", "name:sv": "Norra Haga bibliotek", "opening_hours": "Mo-Th 09:00-20:00, Fr 09:00-16:00, Sa 10:00-16:00", "website": "https://www.helmet.fi/pohjoishaagankirjasto", "wheelchair": "yes"}}, {"type": "node", "id": 188804752, "lat": 60.2567592, "lon": 24.8059293}, {"type": "node", "id": 206104951, "lat": 60.1703305, "lon": 24.9498539}, {"type": "node", "id": 206104952, "lat": 60.1702212, "lon": 24.949972}, {"type": "node", "id": 211044855, "lat": 60.1835899, "lon": 24.9533486}, {"type": "node", "id": 211044857, "lat": 60.1837508, "lon": 24.9535918}, {"type": "node", "id": 211044858, "lat": 60.18363, "lon": 24.953915}, {"type": "node", "id": 211044860, "lat": 60.1834691, "lon": 24.9536718}, {"type": "node", "id": 244323388, "lat": 60.2311911, "lon": 24.933162, "tags": {"addr:city": "Helsinki", "addr:housenumber": "4", "addr:postcode": "00630", "addr:street": "Mets\u00e4purontie", "amenity": "library", "contact:website": "https://www.helmet.fi/fi-FI/Kirjastot_ja_palvelut/Maunulan_kirjasto", "name": "Maunulan kirjasto", "name:fi": "Maunulan kirjasto", "name:sv": "M\u00e5nsas bibliotek", "website": "https://www.maunulatalo.fi/", "wheelchair": "yes"}}, {"type": "node", "id": 248327691, "lat": 60.1725576, "lon": 24.9315669, "tags": {"amenity": "library", "name": "Eduskunnan kirjasto", "name:sv": "Riksdagens bibliotek", "note": "Evakossa postitalossa vakituisten tilojen peruskorjauksen ajan.", "wheelchair": "yes", "wikidata": "Q10655173", "wikipedia": "fi:Eduskunnan kirjasto"}}, {"type": "node", "id": 251536251, "lat": 60.1832565, "lon": 24.9175172}, {"type": "node", "id": 264957720, "lat": 60.2282354, "lon": 24.962351}, {"type": "node", "id": 264957721, "lat": 60.2282967, "lon": 24.9626709}, {"type": "node", "id": 264957723, "lat": 60.2278425, "lon": 24.9625966}, {"type": "node", "id": 264958345, "lat": 60.2278818, "lon": 24.9629302}, {"type": "node", "id": 279177489, "lat": 60.2174829, "lon": 24.8095368, "tags": {"addr:city": "Espoo", "addr:housename": "Sello", "addr:housenumber": "9", "addr:postcode": "02600", "addr:street": "Lepp\u00e4vaarankatu", "amenity": "library", "email": "sellonkirjasto\u200b@espoo\u200b.fi", "level": "2", "name": "Sellon kirjasto", "name:en": "Sello library", "name:fi": "Sellon kirjasto", "name:sv": "Sellobiblioteket", "opening_hours": "Mo-Fr 08:00-20:00; Sa 10:00-18:00; Su 11:00-18:00", "opening_hours:covid19": "Mo-Sa 10:00-18:00", "phone": "+358 9 8165 7603", "website": "https://www.helmet.fi/sello/", "wheelchair": "yes"}}, {"type": "node", "id": 280210331, "lat": 60.1600971, "lon": 24.7391875, "tags": {"addr:city": "Espoo", "addr:housename": "Iso Omena", "addr:housenumber": "1", "addr:postcode": "02230", "addr:street": "Suomenlahdentie", "amenity": "library", "email": "kirjasto.omena@espoo.fi", "internet_access": "yes", "internet_access:fee": "no", "level": "3", "name": "Ison Omenan kirjasto", "name:fi": "Iso Omenan kirjasto", "name:sv": "Iso Omena bibliotek", "opening_hours": "Mo-Fr 07:00-21:00; Sa 08:00-18:00; Su 11:00-18:00", "operator": "Helmet", "phone": "+358 9 8165 7723", "website": "https://www.helmet.fi/fi-FI/Kirjastot_ja_palvelut/Ison_Omenan_kirjasto"}}, {"type": "node", "id": 282574044, "lat": 60.249305, "lon": 24.9412671, "tags": {"amenity": "library", "email": "paloheinan_kirjasto@hel.fi", "fax": "+358 9 310 85767", "internet_access": "terminal", "name": "Palohein\u00e4n kirjasto", "name:fi": "Palohein\u00e4n kirjasto", "name:sv": "Sved\u00e4ngens bibliotek", "opening_hours": "Mo-Th 09:00-20:00;Fr 09:00-16:00", "phone": "+358 9 310 85067", "website": "https://www.helmet.fi/fi-FI/Kirjastot_ja_palvelut/Paloheinan_kirjasto", "wheelchair": "yes"}}, {"type": "node", "id": 287043656, "lat": 60.2463438, "lon": 24.8601296}, {"type": "node", "id": 287043657, "lat": 60.2464034, "lon": 24.8600524}, {"type": "node", "id": 287043658, "lat": 60.2465231, "lon": 24.8605736}, {"type": "node", "id": 287043660, "lat": 60.2464158, "lon": 24.8605986}, {"type": "node", "id": 287044714, "lat": 60.2463346, "lon": 24.8604354}, {"type": "node", "id": 289112423, "lat": 60.184695, "lon": 24.8280477, "tags": {"addr:city": "Espoo", "addr:housenumber": "9", "addr:street": "Otaniementie", "amenity": "library", "name": "Aalto-yliopiston kirjasto", "name:en": "Aalto University Library", "name:fi": "Aalto-yliopiston kirjasto", "name:sv": "Aalto-universitetets bibliotek"}}, {"type": "node", "id": 303520251, "lat": 60.1969709, "lon": 24.8756292}, {"type": "node", "id": 303520254, "lat": 60.196854, "lon": 24.8755017}, {"type": "node", "id": 303520256, "lat": 60.1968746, "lon": 24.8761039}, {"type": "node", "id": 303520258, "lat": 60.1967051, "lon": 24.8759191}, {"type": "node", "id": 314947795, "lat": 60.2041124, "lon": 24.8059309}, {"type": "node", "id": 314947796, "lat": 60.2040168, "lon": 24.8059318}, {"type": "node", "id": 314947797, "lat": 60.2040431, "lon": 24.8054581}, {"type": "node", "id": 314947798, "lat": 60.2040424, "lon": 24.8053543}, {"type": "node", "id": 314947799, "lat": 60.2040102, "lon": 24.8055583}, {"type": "node", "id": 314947800, "lat": 60.2038271, "lon": 24.8053797}, {"type": "node", "id": 314947801, "lat": 60.2038441, "lon": 24.8055697}, {"type": "node", "id": 314947802, "lat": 60.2041042, "lon": 24.805456}, {"type": "node", "id": 335922439, "lat": 60.3517602, "lon": 25.0761713, "tags": {"addr:city": "Vantaa", "addr:country": "FI", "addr:housenumber": "14", "addr:postcode": "01450", "addr:street": "Urpiaisentie", "amenity": "library", "contact:website": "http://www.helmet.fi", "internet_access": "terminal", "name": "Lumon kirjasto", "name:fi": "Lumon kirjasto", "name:sv": "Lumo bibliotek", "wikidata": "Q29586426"}}, {"type": "node", "id": 338441852, "lat": 60.2606405, "lon": 25.0761921}, {"type": "node", "id": 338441853, "lat": 60.2605097, "lon": 25.0759925}, {"type": "node", "id": 338441854, "lat": 60.2603717, "lon": 25.07636}, {"type": "node", "id": 338441855, "lat": 60.2605025, "lon": 25.0765596}, {"type": "node", "id": 338637733, "lat": 60.2946447, "lon": 25.0421177}, {"type": "node", "id": 338637734, "lat": 60.2946274, "lon": 25.0423922}, {"type": "node", "id": 338637735, "lat": 60.2947125, "lon": 25.0425982}, {"type": "node", "id": 338637736, "lat": 60.2951378, "lon": 25.0427698}, {"type": "node", "id": 338637737, "lat": 60.2951633, "lon": 25.042478}, {"type": "node", "id": 338637738, "lat": 60.295359, "lon": 25.0425467}, {"type": "node", "id": 338637739, "lat": 60.295393, "lon": 25.0421347}, {"type": "node", "id": 338637740, "lat": 60.2950697, "lon": 25.0420231}, {"type": "node", "id": 338637741, "lat": 60.2950485, "lon": 25.0421947}, {"type": "node", "id": 338637807, "lat": 60.2948688, "lon": 25.0421449}, {"type": "node", "id": 339300948, "lat": 60.2272694, "lon": 25.0125099}, {"type": "node", "id": 339300951, "lat": 60.2273699, "lon": 25.0123208}, {"type": "node", "id": 339300953, "lat": 60.2275277, "lon": 25.0122468}, {"type": "node", "id": 339300956, "lat": 60.2276565, "lon": 25.012296, "tags": {"entrance": "emergency", "ref": "1C"}}, {"type": "node", "id": 339300959, "lat": 60.2278178, "lon": 25.0126089}, {"type": "node", "id": 339300961, "lat": 60.2278444, "lon": 25.0128934, "tags": {"entrance": "secondary", "ref": "1D"}}, {"type": "node", "id": 339300964, "lat": 60.2277749, "lon": 25.0132707}, {"type": "node", "id": 339300966, "lat": 60.2276892, "lon": 25.0134269}, {"type": "node", "id": 339300969, "lat": 60.2275026, "lon": 25.0135113, "tags": {"entrance": "emergency", "ref": "E"}}, {"type": "node", "id": 339300971, "lat": 60.2272263, "lon": 25.0126794}, {"type": "node", "id": 369550855, "lat": 60.1702027, "lon": 24.9500396}, {"type": "node", "id": 371485775, "lat": 60.2035988, "lon": 24.6582199, "tags": {"addr:city": "Espoo", "addr:housenumber": "11", "addr:postcode": "02770", "addr:street": "Siltakatu", "amenity": "library", "email": "kirjasto.entresse@espoo.fi", "level": "3", "name": "Entressen kirjasto", "name:fi": "Entressen kirjasto", "name:sv": "Entressebiblioteket", "operator": "Espoon kaupunki", "operator:type": "public", "phone": "09 8165 3776", "source": "survey", "website": "https://www.helmet.fi/entressenkirjasto"}}, {"type": "node", "id": 376008164, "lat": 60.17024, "lon": 24.9499288}, {"type": "node", "id": 376008169, "lat": 60.170445, "lon": 24.9499718}, {"type": "node", "id": 376011807, "lat": 60.1703536, "lon": 24.950676, "tags": {"entrance": "yes"}}, {"type": "node", "id": 376011837, "lat": 60.1705459, "lon": 24.9501435}, {"type": "node", "id": 382662487, "lat": 60.1832018, "lon": 24.9170304}, {"type": "node", "id": 387801955, "lat": 60.2567864, "lon": 24.8049533}, {"type": "node", "id": 387801956, "lat": 60.2565894, "lon": 24.8049962}, {"type": "node", "id": 387801957, "lat": 60.2566407, "lon": 24.8059551}, {"type": "node", "id": 387801958, "lat": 60.2567535, "lon": 24.8058231}, {"type": "node", "id": 387801959, "lat": 60.256832, "lon": 24.805806}, {"type": "node", "id": 432588868, "lat": 60.2050284, "lon": 24.9626744}, {"type": "node", "id": 432588869, "lat": 60.2047829, "lon": 24.9618246}, {"type": "node", "id": 432588870, "lat": 60.2046951, "lon": 24.9620047}, {"type": "node", "id": 469348742, "lat": 60.2139941, "lon": 24.8913909}, {"type": "node", "id": 469348743, "lat": 60.2139502, "lon": 24.8920339}, {"type": "node", "id": 469348744, "lat": 60.2138127, "lon": 24.8919958}, {"type": "node", "id": 469348745, "lat": 60.2138252, "lon": 24.8918121}, {"type": "node", "id": 469348746, "lat": 60.2138548, "lon": 24.8918203}, {"type": "node", "id": 469348747, "lat": 60.2138732, "lon": 24.89155}, {"type": "node", "id": 469348748, "lat": 60.2139062, "lon": 24.8915591}, {"type": "node", "id": 469348749, "lat": 60.2139191, "lon": 24.8913701}, {"type": "node", "id": 472483321, "lat": 60.2773539, "lon": 25.1031716, "tags": {"addr:city": "Vantaa", "addr:country": "FI", "addr:housenumber": "5", "addr:postcode": "01600", "addr:street": "Kimokuja", "amenity": "library", "contact:email": "hakunila.kirjasto@vantaa.fi", "contact:instagram": "https://www.instagram.com/hakunilankirjasto/", "contact:website": "https://www.helmet.fi/hakunilankirjasto/", "facebook": "https://www.facebook.com/hakunilankirjasto", "name": "Hakunilan kirjasto", "name:en": "Library of Hakunila", "name:fi": "Hakunilan kirjasto", "name:sv": "H\u00e5kansb\u00f6le bibliotek", "phone": "+358 43 8248 306", "wikidata": "Q31086971", "wikimedia_commons": "Category:Hakunila Library", "wikipedia": "fi:Hakunilan kirjasto"}}, {"type": "node", "id": 480755232, "lat": 60.2745782, "lon": 25.0341292, "tags": {"amenity": "library", "name": "Tapulikaupungin kirjasto", "name:fi": "Tapulikaupungin kirjasto", "name:sv": "Stapelstadens bibliotek", "opening_hours": "Mo-Th 12:00-20:00; Fr-Sa 10:00-15:00", "website": "https://www.helmet.fi/fi-FI/Kirjastot_ja_palvelut/Tapulikaupungin_kirjasto"}}, {"type": "node", "id": 482074000, "lat": 60.2088023, "lon": 25.1435848, "tags": {"addr:city": "Helsinki", "addr:country": "FI", "addr:housenumber": "2", "addr:postcode": "00980", "addr:street": "Mosaiikkitori", "amenity": "library", "internet_access": "wlan", "internet_access:fee": "no", "name": "Vuosaaren kirjasto", "name:fi": "Vuosaaren kirjasto", "name:sv": "Nordsj\u00f6 bibliotek", "opening_hours": "Mo,Fr 08:00-18:00; Tu off; We,Th 08:00-20:00; Sa 10:00-16:00; Su off", "phone": "+358 9 3108 5098", "ref": "FI-He", "website": "https://www.helmet.fi/fi-FI/Kirjastot_ja_palvelut/Vuosaaren_kirjasto", "wheelchair": "yes"}}, {"type": "node", "id": 501608640, "lat": 60.2273463, "lon": 25.012731, "tags": {"amenity": "library", "name": "Viikin kampuskirjasto", "name:fi": "Viikin kampuskirjasto", "name:sv": "Campusbiblioteket i Vik", "operator": "Helsingin yliopisto", "ref": "Hb", "wikidata": "Q18662837", "wikimedia_commons": "Category:Viikki Campus Library", "wikipedia": "fi:Viikin kampuskirjasto"}}, {"type": "node", "id": 501610897, "lat": 60.1835149, "lon": 24.9534885, "tags": {"entrance": "main"}}, {"type": "node", "id": 549357531, "lat": 60.1775632, "lon": 24.8044913, "tags": {"addr:city": "Espoo", "addr:country": "FI", "addr:housenumber": "2", "addr:postcode": "02100", "addr:street": "Kulttuuriaukio", "amenity": "library", "email": "kirjasto.tapiola@espoo.fi", "name": "Tapiolan kirjasto", "name:en": "Tapiola Library", "name:sv": "Hagalunds bibliotek", "opening_hours": "Mo-Fr 08:00-20:00; Sa 10:00-18:00", "phone": "050 428 9392", "website": "https://www.helmet.fi/tapiolankirjasto", "wikidata": "Q11896489", "wikimedia_commons": "Category:Tapiola Library", "wikipedia": "fi:Tapiolan kirjasto"}}, {"type": "node", "id": 556363477, "lat": 60.2280234, "lon": 24.9624835, "tags": {"entrance": "main"}}, {"type": "node", "id": 565599251, "lat": 60.2755337, "lon": 24.9973891, "tags": {"addr:city": "Helsinki", "addr:housenumber": "11", "addr:postcode": "00740", "addr:street": "Seulastentie", "amenity": "library", "description": "Suutarilan syd\u00e4n\n\nTervetuloa viihtyis\u00e4\u00e4n ja palvelevaan koko perheen kirjastoon!\n\nBussit: 61, 79, 554, 611, 611B, 701", "email": "suutarilan_kirjasto@hel.fi", "internet_access": "yes", "name": "Suutarilan kirjasto", "name:en": "Library Suutarila", "name:sv": "Skomakarb\u00f6le bibliotek", "operator": "Helmet", "operator:type": "public", "operator:wikidata": "Q11861998", "phone": "(09) 3108 5074", "website": "https://www.helmet.fi/fi-FI/Kirjastot_ja_palvelut/Suutarilan_kirjasto"}}, {"type": "node", "id": 605064000, "lat": 60.1921202, "lon": 24.9620965, "tags": {"entrance": "yes"}}, {"type": "node", "id": 613529882, "lat": 60.2962615, "lon": 25.0580343}, {"type": "node", "id": 613529883, "lat": 60.2960709, "lon": 25.0582819}, {"type": "node", "id": 613529884, "lat": 60.2962816, "lon": 25.0584916}, {"type": "node", "id": 613529885, "lat": 60.2962215, "lon": 25.0583032}, {"type": "node", "id": 613529886, "lat": 60.2963104, "lon": 25.0581877}, {"type": "node", "id": 613529891, "lat": 60.2961799, "lon": 25.0586237}, {"type": "node", "id": 688782161, "lat": 60.2771136, "lon": 24.8518626, "tags": {"addr:city": "Vantaa", "addr:country": "FI", "addr:housenumber": "3", "addr:postcode": "01620", "addr:street": "Laajaniityntie", "amenity": "library", "contact:email": "martinlaakso.kirjasto@vantaa.fi", "contact:phone": "+358 9 8393 4944", "contact:website": "http://www.helmet.fi/martinlaaksonkirjasto", "name": "Martinlaakson kirjasto", "name:fi": "Martinlaakson kirjasto", "name:sv": "M\u00e5rtensdals bibliotek", "website": "https://www.helmet.fi/fi-FI/Kirjastot_ja_palvelut/Martinlaakson_kirjasto", "wikidata": "Q77562887", "wikimedia_commons": "Category:Martinlaakso Library", "wikipedia": "fi:Martinlaakson kirjasto"}}, {"type": "node", "id": 874347678, "lat": 60.2613074, "lon": 24.8538197, "tags": {"addr:city": "Vantaa", "addr:housenumber": "3", "addr:postcode": "01600", "addr:street": "Paalutori", "amenity": "library", "dog": "no", "email": "myyrmaki.kirjasto@vantaa.fi", "fax": "09 8393 5557", "internet_access": "wlan", "internet_access:fee": "no", "internet_access:ssid": "Vantaa Avoin", "level": "0", "name": "Myyrm\u00e4en kirjasto", "name:fi": "Myyrm\u00e4en kirjasto", "name:sv": "Myrbacka bibliotek", "opening_hours": "Mo-Th 08:00-20:00; Fr 08:00-16:00; Sa 09:00-16:00", "phone": "09 8393 5554", "ref:isil": "FI-Vantaa", "website": "https://www.helmet.fi/fi-FI/Kirjastot_ja_palvelut/Myyrmaen_kirjasto", "wheelchair": "yes", "wikidata": "Q18660046", "wikimedia_commons": "Category:Myyrm\u00e4ki library", "wikipedia": "fi:Myyrm\u00e4en kirjasto"}}, {"type": "node", "id": 924518645, "lat": 60.2498002, "lon": 24.9912196, "tags": {"addr:city": "Helsinki", "addr:housenumber": "12", "addr:postcode": "00720", "addr:street": "Kentt\u00e4kuja", "amenity": "library", "description": "N\u00e4in p\u00e4\u00e4set kirjastoon: Bussit: 61, 69, 70 L\u00e4hijunat: I, P", "email": "pukinmaen_kirjasto@hel.fi", "internet_access": "yes", "internet_access:fee": "no", "internet_access:ssid": "Stadinetti", "name": "Pukinm\u00e4en kirjasto", "name:en": "Pukinm\u00e4ki Library", "name:ru": "\u0411\u0438\u0431\u043b\u0438\u043e\u0442\u0435\u043a\u0430 \u041f\u0443\u043a\u0438\u043d\u043c\u044f\u043a\u0438", "name:sv": "Bocksbacka bibliotek", "operator": "Helmet", "operator:type": "public", "phone": "(09) 3108 5072", "website": "https://www.helmet.fi/fi-FI", "wheelchair": "yes"}}, {"type": "node", "id": 936807877, "lat": 60.3059722, "lon": 24.7398113, "tags": {"addr:city": "Espoo", "addr:country": "FI", "addr:housenumber": "4", "addr:postcode": "02970", "addr:street": "Ruskaniitty", "amenity": "library", "email": "kirjasto.kalajarvi@espoo.fi", "internet_access": "yes", "internet_access:fee": "no", "name": "Kalaj\u00e4rven kirjasto", "name:fi": "Kalaj\u00e4rven kirjasto", "name:sv": "Kalaj\u00e4rvi bibliotek", "phone": "09 8165 3400", "website": "https://www.helmet.fi/fi-FI/Kirjastot_ja_palvelut/Kalajarven_kirjasto"}}, {"type": "node", "id": 941993107, "lat": 60.2463462, "lon": 25.1150379, "tags": {"addr:city": "Vantaa", "addr:housenumber": "2", "addr:postcode": "01280", "addr:street": "Suunnistajankuja", "amenity": "library", "contact:email": "lansimaki.kirjasto@vantaa.fi", "contact:fax": "+358 9 8393 1016", "contact:phone": "+358 9 8393 1017", "contact:website": "http://www.vantaa.fi/fi/kirjasto/kirjastot_ja_aukioloajat_/lansimaen_kirjasto", "name": "L\u00e4nsim\u00e4en kirjasto", "name:fi": "L\u00e4nsim\u00e4en kirjasto", "name:sv": "V\u00e4sterkulla bibliotek", "opening_hours": "Mo,Th 13:00-20:00; Tu,We,Fr 08:00-16:00", "website": "https://www.helmet.fi/fi-FI/Kirjastot_ja_palvelut/Lansimaen_kirjasto", "wikidata": "Q77562874", "wikipedia": "fi:L\u00e4nsim\u00e4en kirjasto"}}, {"type": "node", "id": 967072575, "lat": 60.1880481, "lon": 24.594641}, {"type": "node", "id": 967072576, "lat": 60.1881782, "lon": 24.5949985}, {"type": "node", "id": 967072579, "lat": 60.188011, "lon": 24.5952446}, {"type": "node", "id": 967072582, "lat": 60.1878904, "lon": 24.594913}, {"type": "node", "id": 1007942428, "lat": 60.1713848, "lon": 24.9482594, "tags": {"addr:housenumber": "30", "addr:postcode": "00014", "addr:street": "Fabianinkatu", "alt_name": "Opiskelijakirjasto", "amenity": "library", "check_date:opening_hours": "2023-09-13", "name": "Helsingin yliopiston p\u00e4\u00e4kirjasto", "name:en": "Helsinki University Library, Main Library", "name:fi": "Helsingin yliopiston p\u00e4\u00e4kirjasto", "name:sv": "Helsingfors universitets huvudbibliotek", "opening_hours": "Mo-Fr 08:00-20:00; Sa 11:00-17:00, Su closed", "operator": "University of Helsinki", "wheelchair": "yes"}}, {"type": "node", "id": 1007994731, "lat": 60.1712923, "lon": 24.9493415, "tags": {"amenity": "library", "name": "Topelia", "name:fi": "Topelia", "name:sv": "Topelia"}}, {"type": "node", "id": 1009287749, "lat": 60.1967838, "lon": 24.8755367}, {"type": "node", "id": 1009287751, "lat": 60.1967381, "lon": 24.8757187}, {"type": "node", "id": 1009287771, "lat": 60.1967531, "lon": 24.8757409}, {"type": "node", "id": 1009287808, "lat": 60.1968308, "lon": 24.8755879}, {"type": "node", "id": 1009288080, "lat": 60.1967393, "lon": 24.875702}, {"type": "node", "id": 1009288131, "lat": 60.1969117, "lon": 24.8759661}, {"type": "node", "id": 1009288205, "lat": 60.1968874, "lon": 24.8759396}, {"type": "node", "id": 1009288286, "lat": 60.1967412, "lon": 24.8757278}, {"type": "node", "id": 1012373622, "lat": 60.1702595, "lon": 24.9498982}, {"type": "node", "id": 1012373625, "lat": 60.1703971, "lon": 24.949885}, {"type": "node", "id": 1012373641, "lat": 60.1703611, "lon": 24.9498591}, {"type": "node", "id": 1012373646, "lat": 60.170426, "lon": 24.9499268}, {"type": "node", "id": 1018686500, "lat": 60.183254, "lon": 24.9177677}, {"type": "node", "id": 1018686592, "lat": 60.1832225, "lon": 24.917148}, {"type": "node", "id": 1018686616, "lat": 60.1832863, "lon": 24.9169962}, {"type": "node", "id": 1018686694, "lat": 60.1832501, "lon": 24.9173924}, {"type": "node", "id": 1323450837, "lat": 60.1466442, "lon": 24.9867462, "tags": {"addr:city": "Helsinki", "addr:country": "FI", "addr:housenumber": "C 31", "addr:place": "Suomenlinna", "addr:postcode": "00190", "amenity": "library", "name": "Suomenlinnan kirjasto", "name:fi": "Suomenlinnan kirjasto", "name:sv": "Sveaborgs bibliotek", "website": "http://www.lib.hel.fi/suomenlinna/"}}, {"type": "node", "id": 1369465802, "lat": 60.1701212, "lon": 24.9501365}, {"type": "node", "id": 1369465803, "lat": 60.1701345, "lon": 24.9506746}, {"type": "node", "id": 1369465806, "lat": 60.1701937, "lon": 24.9501294}, {"type": "node", "id": 1369465818, "lat": 60.1702917, "lon": 24.9498675}, {"type": "node", "id": 1369465821, "lat": 60.1704673, "lon": 24.9501016}, {"type": "node", "id": 1369465830, "lat": 60.1705447, "lon": 24.9500939}, {"type": "node", "id": 1369465832, "lat": 60.170558, "lon": 24.9506317}, {"type": "node", "id": 1380779190, "lat": 60.1662008, "lon": 24.9462164, "tags": {"amenity": "library", "check_date": "2023-11-09", "internet_access": "wlan", "internet_access:fee": "no", "name": "Rikhardinkadun kirjasto", "name:fi": "Rikhardinkadun kirjasto", "name:sv": "Richardsgatans bibliotek", "opening_hours": "Mo-Th 08:00-20:00; Fr 08:00-18:00; Sa 10:00-16:00; Su 12:00-18:00", "url": "http://www.lib.hel.fi/rikhardinkatu", "website": "https://www.helmet.fi/fi-FI/Kirjastot_ja_palvelut/Rikhardinkadun_kirjasto", "wikidata": "Q5478991", "wikimedia_commons": "Category:Rikhardinkatu Library", "wikipedia": "fi:Rikhardinkadun kirjasto"}}, {"type": "node", "id": 1417861583, "lat": 60.1837548, "lon": 24.9536514}, {"type": "node", "id": 1417861584, "lat": 60.1836338, "lon": 24.9539049, "tags": {"access": "yes", "addr:housenumber": "12", "addr:street": "Porthaninkatu", "description": "With buzzer", "entrance": "secondary", "wheelchair": "yes"}}, {"type": "node", "id": 1417861585, "lat": 60.183638, "lon": 24.9538937}, {"type": "node", "id": 1417861586, "lat": 60.1837445, "lon": 24.9536923}, {"type": "node", "id": 1417861587, "lat": 60.1837408, "lon": 24.9536698}, {"type": "node", "id": 1417861588, "lat": 60.1835553, "lon": 24.9534413}, {"type": "node", "id": 1417861589, "lat": 60.1836763, "lon": 24.9538747}, {"type": "node", "id": 1417861590, "lat": 60.1837464, "lon": 24.9537394}, {"type": "node", "id": 1417861591, "lat": 60.1836993, "lon": 24.9538653}, {"type": "node", "id": 1417861592, "lat": 60.1837429, "lon": 24.9536128}, {"type": "node", "id": 1417861593, "lat": 60.1837557, "lon": 24.9536363}, {"type": "node", "id": 1417861594, "lat": 60.1837458, "lon": 24.9536683}, {"type": "node", "id": 1417861595, "lat": 60.1836525, "lon": 24.9539119}, {"type": "node", "id": 1417861596, "lat": 60.1837502, "lon": 24.9536635}, {"type": "node", "id": 1417861600, "lat": 60.1837558, "lon": 24.9536414}, {"type": "node", "id": 1417861601, "lat": 60.1834891, "lon": 24.9535577}, {"type": "node", "id": 1417861602, "lat": 60.1836635, "lon": 24.9538965}, {"type": "node", "id": 1417861603, "lat": 60.1836502, "lon": 24.9539121}, {"type": "node", "id": 1417861604, "lat": 60.1836589, "lon": 24.9539069}, {"type": "node", "id": 1417861605, "lat": 60.1836645, "lon": 24.9538738}, {"type": "node", "id": 1417861613, "lat": 60.1837353, "lon": 24.9538063}, {"type": "node", "id": 1417861614, "lat": 60.1837282, "lon": 24.9538252}, {"type": "node", "id": 1417861615, "lat": 60.1836548, "lon": 24.9539109}, {"type": "node", "id": 1417861616, "lat": 60.1835408, "lon": 24.9534193}, {"type": "node", "id": 1417861617, "lat": 60.18371, "lon": 24.9538551}, {"type": "node", "id": 1417861618, "lat": 60.1837551, "lon": 24.9536313}, {"type": "node", "id": 1417861620, "lat": 60.1835036, "lon": 24.9535796}, {"type": "node", "id": 1417861622, "lat": 60.183665, "lon": 24.9538877}, {"type": "node", "id": 1417861632, "lat": 60.1837445, "lon": 24.9537628}, {"type": "node", "id": 1420808668, "lat": 60.192097, "lon": 24.9623705}, {"type": "node", "id": 1420808669, "lat": 60.1920996, "lon": 24.9621217}, {"type": "node", "id": 1420808670, "lat": 60.1921063, "lon": 24.9623804}, {"type": "node", "id": 1420808675, "lat": 60.1921341, "lon": 24.962023}, {"type": "node", "id": 1420808676, "lat": 60.1921394, "lon": 24.9628149}, {"type": "node", "id": 1420808677, "lat": 60.1921446, "lon": 24.9628447}, {"type": "node", "id": 1420808680, "lat": 60.1922177, "lon": 24.9626484}, {"type": "node", "id": 1420808681, "lat": 60.1922221, "lon": 24.9621509}, {"type": "node", "id": 1420808682, "lat": 60.1922238, "lon": 24.9625626}, {"type": "node", "id": 1420808684, "lat": 60.1922326, "lon": 24.9624995}, {"type": "node", "id": 1420808686, "lat": 60.192236, "lon": 24.9626344}, {"type": "node", "id": 1420808687, "lat": 60.1922386, "lon": 24.9627501}, {"type": "node", "id": 1420808688, "lat": 60.1922665, "lon": 24.962468}, {"type": "node", "id": 1420808689, "lat": 60.19229, "lon": 24.9621228}, {"type": "node", "id": 1420808690, "lat": 60.1923109, "lon": 24.9622963}, {"type": "node", "id": 1420808691, "lat": 60.1923196, "lon": 24.962284}, {"type": "node", "id": 1420808693, "lat": 60.1923449, "lon": 24.9625065}, {"type": "node", "id": 1484656949, "lat": 60.2274419, "lon": 25.0130634, "tags": {"entrance": "main"}}, {"type": "node", "id": 1513594784, "lat": 60.2278538, "lon": 24.9627484}, {"type": "node", "id": 1513594785, "lat": 60.2278648, "lon": 24.9627415}, {"type": "node", "id": 1513594814, "lat": 60.2282577, "lon": 24.962496}, {"type": "node", "id": 1513594816, "lat": 60.2282687, "lon": 24.9624891}, {"type": "node", "id": 1517196300, "lat": 60.1832388, "lon": 24.9172691}, {"type": "node", "id": 1517196305, "lat": 60.1832452, "lon": 24.9178918}, {"type": "node", "id": 1517196308, "lat": 60.183338, "lon": 24.9169586}, {"type": "node", "id": 1517196311, "lat": 60.1833569, "lon": 24.9178932}, {"type": "node", "id": 1517196314, "lat": 60.1834942, "lon": 24.9177954}, {"type": "node", "id": 1632813345, "lat": 60.261681, "lon": 25.2113244, "tags": {"addr:city": "Helsinki", "addr:housenumber": "924", "addr:postcode": "00890", "addr:street": "Knutersintie", "amenity": "library", "name": "Kirjasto Sakarinm\u00e4ki \u00d6stersundom", "name:fi": "Sakarinm\u00e4en lastenkirjasto", "name:sv": "\u00d6stersundom barnbibliotek", "website": "http://m.helmet.fi/screens/libinfo_55.html"}}, {"type": "node", "id": 1643972303, "lat": 60.201814, "lon": 24.9339535, "tags": {"addr:city": "Helsinki", "amenity": "library", "name": "Haaga-Helian kirjasto", "name:fi": "Haaga-Helian kirjasto", "name:sv": "Haaga-Helia bibliotek", "source": "local knowledge"}}, {"type": "node", "id": 1700615700, "lat": 60.2007754, "lon": 24.9358785, "tags": {"addr:city": "Helsinki", "addr:housenumber": "9", "addr:postcode": "00520", "addr:street": "Kellosilta", "amenity": "library", "name": "Pasilan kirjasto", "name:fi": "Pasilan kirjasto", "name:sv": "B\u00f6le bibliotek", "opening_hours": "Mo-Th 08:00-20:00; Fr 08:00-18:00; Sa 10:00-16:00", "operator": "Helsingin kaupunki", "phone": "+358 9 3108 5901", "website": "https://www.helmet.fi/fi-FI/Kirjastot_ja_palvelut/Pasilan_kirjasto", "wheelchair": "yes", "wikidata": "Q11862167", "wikimedia_commons": "Category:Pasila Library", "wikipedia": "fi:Pasilan kirjasto"}}, {"type": "node", "id": 1719693643, "lat": 60.1836569, "lon": 24.9539093}, {"type": "node", "id": 1719693646, "lat": 60.1836652, "lon": 24.953883}, {"type": "node", "id": 1719693648, "lat": 60.183665, "lon": 24.9538783}, {"type": "node", "id": 1719693650, "lat": 60.1836623, "lon": 24.9539005}, {"type": "node", "id": 1719693660, "lat": 60.1836607, "lon": 24.953904}, {"type": "node", "id": 1719693664, "lat": 60.1836644, "lon": 24.9538922}, {"type": "node", "id": 1719693666, "lat": 60.183688, "lon": 24.9538719}, {"type": "node", "id": 1719693667, "lat": 60.1837197, "lon": 24.9538417}, {"type": "node", "id": 1719693669, "lat": 60.1837407, "lon": 24.9537853}, {"type": "node", "id": 1719693672, "lat": 60.1837555, "lon": 24.9536465}, {"type": "node", "id": 1719693674, "lat": 60.1837536, "lon": 24.9536559}, {"type": "node", "id": 1719693677, "lat": 60.1837433, "lon": 24.9536695}, {"type": "node", "id": 1719693680, "lat": 60.1837481, "lon": 24.9536663}, {"type": "node", "id": 1719693684, "lat": 60.1837521, "lon": 24.95366}, {"type": "node", "id": 1719693689, "lat": 60.1837464, "lon": 24.9537157}, {"type": "node", "id": 1765207662, "lat": 60.2605871, "lon": 25.0763344, "tags": {"entrance": "main"}}, {"type": "node", "id": 1770774093, "lat": 60.1675132, "lon": 24.6633296}, {"type": "node", "id": 1770774094, "lat": 60.1674902, "lon": 24.6636653}, {"type": "node", "id": 1770774099, "lat": 60.1675299, "lon": 24.6635529}, {"type": "node", "id": 1770774102, "lat": 60.1675558, "lon": 24.6639473}, {"type": "node", "id": 1770774110, "lat": 60.1676619, "lon": 24.6638475}, {"type": "node", "id": 1770774112, "lat": 60.1676695, "lon": 24.6638802}, {"type": "node", "id": 1770774113, "lat": 60.1676794, "lon": 24.6631733}, {"type": "node", "id": 1770774119, "lat": 60.1677124, "lon": 24.6634526}, {"type": "node", "id": 1770774123, "lat": 60.1677981, "lon": 24.6634597}, {"type": "node", "id": 1770774130, "lat": 60.167829, "lon": 24.6635923}, {"type": "node", "id": 1770774132, "lat": 60.1678426, "lon": 24.6635795}, {"type": "node", "id": 1770774133, "lat": 60.1678689, "lon": 24.6636927}, {"type": "node", "id": 1776064523, "lat": 60.1740082, "lon": 24.9540966, "tags": {"addr:city": "Helsinki", "addr:country": "FI", "addr:housenumber": "16", "addr:postcode": "00170", "addr:street": "Liisankatu", "amenity": "library", "contact:website": "http://www.genealogia.fi/kirjasto.html", "name": "Suomen Sukututkimusseuran kirjasto", "name:fi": "Suomen Sukututkimusseuran kirjasto", "name:sv": "Genealogiska Samfundets bibliotek", "website": "http://genealogia.fi/"}}, {"type": "node", "id": 1831294128, "lat": 60.2454141, "lon": 24.7691009}, {"type": "node", "id": 1831294129, "lat": 60.2454086, "lon": 24.7691762}, {"type": "node", "id": 1831294140, "lat": 60.2454264, "lon": 24.7691157}, {"type": "node", "id": 1831294141, "lat": 60.2454358, "lon": 24.7692087}, {"type": "node", "id": 1831294144, "lat": 60.2454521, "lon": 24.7689715}, {"type": "node", "id": 1831294146, "lat": 60.2455603, "lon": 24.7695135}, {"type": "node", "id": 1831294147, "lat": 60.2455841, "lon": 24.7692434}, {"type": "node", "id": 1831294148, "lat": 60.245609, "lon": 24.7691589}, {"type": "node", "id": 1831294149, "lat": 60.2456253, "lon": 24.7692926}, {"type": "node", "id": 1864024283, "lat": 60.20899, "lon": 24.9764087, "tags": {"addr:city": "Helsinki", "addr:housenumber": "135", "addr:postcode": "00560", "addr:street": "H\u00e4meentie", "addr:unit": "A", "amenity": "library", "email": "arabianrannan_kirjasto@hel.fi", "level": "1;2", "name": "Arabianrannan kirjasto", "name:en": "Library Arabianranta", "name:fi": "Arabianrannan kirjasto", "name:sv": "Arabiastrandens bibliotek", "opening_hours": "Mo-Th 09:00-20:00; Fr 09:00-16:00", "phone": "09 3108 5056", "website": "https://www.helmet.fi/arabianrannankirjasto", "wheelchair": "yes"}}, {"type": "node", "id": 1879339481, "lat": 60.1734308, "lon": 24.9375842}, {"type": "node", "id": 1929157033, "lat": 60.1881112, "lon": 24.5948145}, {"type": "node", "id": 2116634030, "lat": 60.2241485, "lon": 25.0731173, "tags": {"addr:city": "Helsinki", "addr:housenumber": "2", "addr:postcode": "00920", "addr:street": "Kiviparintie", "amenity": "library", "email": "myllypuron_kirjasto@hel.fi", "name": "Myllypuron kirjasto", "name:fi": "Myllypuron kirjasto", "name:sv": "Kvarnb\u00e4ckens bibliotek", "opening_hours": "Mo-Th 09:00-20:00; Fr 09:00-16:00; Sa 10:00-16:00", "phone": "(09) 3108 5092", "website": "https://helmet.fi/myllypuro", "wheelchair": "yes"}}, {"type": "node", "id": 2208224925, "lat": 60.2463149, "lon": 24.8603526, "tags": {"door": "yes", "indoor": "door", "level": "0"}}, {"type": "node", "id": 2315646929, "lat": 60.1879376, "lon": 24.9764033, "tags": {"addr:city": "Helsinki", "addr:housenumber": "13", "addr:postcode": "00580", "addr:street": "Ty\u00f6pajankatu", "amenity": "library", "name": "Tilastokirjasto", "name:en": "Library of Statistics", "name:fi": "Tilastokirjasto", "name:sv": "Statistikbiblioteket", "website": "https://www.stat.fi/tup/tilastokirjasto/index.html", "wheelchair": "limited"}}, {"type": "node", "id": 2537914950, "lat": 60.2047226, "lon": 24.9619516, "tags": {"door": "yes"}}, {"type": "node", "id": 2537914954, "lat": 60.2048245, "lon": 24.9619038, "tags": {"access": "employees", "entrance": "yes"}}, {"type": "node", "id": 2537914960, "lat": 60.2049741, "lon": 24.9625815, "tags": {"door": "yes"}}, {"type": "node", "id": 2742138028, "lat": 60.2051163, "lon": 24.962507}, {"type": "node", "id": 2742138030, "lat": 60.2051948, "lon": 24.9618502}, {"type": "node", "id": 3237174474, "lat": 60.1731977, "lon": 24.9384041}, {"type": "node", "id": 3390762362, "lat": 60.1587032, "lon": 24.8832846, "tags": {"addr:city": "Helsinki", "addr:country": "FI", "addr:housenumber": "10a A", "addr:postcode": "00200", "addr:street": "Pajalahdentie", "amenity": "library", "contact:email": "lauttasaaren_kirjasto@hel.fi", "contact:website": "helmet.fi/lauttasaarenkirjasto", "fixme": "A kirjasto, B nuorisotalo, C p\u00e4iv\u00e4koti (pohj->et j\u00e4rjestyksess\u00e4)", "internet_access": "yes", "internet_access:fee": "no", "name": "Lauttasaaren kirjasto", "name:fi": "Lauttasaaren kirjasto", "name:sv": "Drums\u00f6 bibliotek", "opening_hours": "Mo-Th 09:00-20:00; Fr 09:00-18:00; Sa 10:00-16:00", "operator": "Helmet", "operator:type": "public", "operator:wikidata": "Q11861998"}}, {"type": "node", "id": 3412571233, "lat": 60.2948608, "lon": 25.0422123}, {"type": "node", "id": 3575434316, "lat": 60.271164, "lon": 25.058815, "tags": {"amenity": "library", "name": "Puistolan kirjasto", "name:fi": "Puistolan kirjasto", "name:sv": "Parkstads bibliotek", "opening_hours": "Mo-Th 14:00-20:00; Fr 14:00-16:00; Sa 10:00-16:00", "website": "https://www.helmet.fi/fi-FI/Kirjastot_ja_palvelut/Puistolan_kirjasto"}}, {"type": "node", "id": 3589589393, "lat": 60.2655655, "lon": 25.0190937, "tags": {"amenity": "library", "name": "Tapanilan kirjasto"}}, {"type": "node", "id": 3673096831, "lat": 60.1906346, "lon": 24.7398476}, {"type": "node", "id": 3673096832, "lat": 60.1904473, "lon": 24.7404762}, {"type": "node", "id": 3673096833, "lat": 60.1901117, "lon": 24.7400717}, {"type": "node", "id": 3673096834, "lat": 60.190299, "lon": 24.7394431}, {"type": "node", "id": 4244587995, "lat": 60.1599869, "lon": 24.9208571, "tags": {"addr:city": "Helsinki", "addr:housenumber": "1", "addr:postcode": "00220", "addr:street": "Tyynenmerenkatu", "amenity": "library", "dog": "yes", "email": "jatkasaaren_kirjasto@hel.fi", "name": "J\u00e4tk\u00e4saaren infokeskus ja kirjasto", "name:fi": "J\u00e4tk\u00e4saaren infokeskus ja kirjasto", "name:sv": "Busholmens bibliotek och infocenter", "opening_hours": "Mo-Th 10:00-17:00; Fr 09:00-16:00; PH off", "operator": "Helmet", "operator:type": "public", "operator:wikidata": "Q11861998", "phone": "+358931085815", "website": "https://www.helmet.fi/fi-FI/Kirjastot_ja_palvelut/Jatkasaaren_kirjasto_ja_infokeskus", "wheelchair": "yes"}}, {"type": "node", "id": 4256880720, "lat": 60.1902651, "lon": 24.7395568}, {"type": "node", "id": 4256880726, "lat": 60.1906048, "lon": 24.7398117}, {"type": "node", "id": 4394855533, "lat": 60.2463543, "lon": 24.8604824}, {"type": "node", "id": 4398518285, "lat": 60.2502645, "lon": 25.0148191, "tags": {"addr:city": "Helsinki", "addr:housenumber": "1", "addr:postcode": "00700", "addr:street": "Ala-Malmin tori", "amenity": "library", "email": "malmin_kirjasto@hel.fi", "name": "Malmin kirjasto", "name:fi": "Malmin kirjasto", "name:sv": "Malms bibliotek", "opening_hours": "Mo-We 08:00-20:00; Th-Fr 08:00-18:00; Sa 10:00-16:00", "phone": "09 3108 5070", "website": "https://www.helmet.fi/malminkirjasto", "wikidata": "Q77562880", "wikipedia": "fi:Malmin kirjasto"}}, {"type": "node", "id": 4528483876, "lat": 60.168715, "lon": 24.6147976, "tags": {"addr:city": "Espoo", "addr:housenumber": "1", "addr:postcode": "02330", "addr:street": "Brinkinm\u00e4entie", "amenity": "library", "name": "Saunalahden kirjasto", "name:fi": "Saunalahden kirjasto", "name:sv": "Bastviks bibliotek", "website": "https://www.helmet.fi/fi-FI/Kirjastot_ja_palvelut/Saunalahden_kirjasto", "wikidata": "Q77562945", "wikipedia": "fi:Saunalahden kirjasto"}}, {"type": "node", "id": 4547807485, "lat": 60.1600924, "lon": 24.7829586, "tags": {"addr:housenumber": "11", "addr:street": "Toppelundintie", "amenity": "library", "email": "kirjasto.haukilahti@espoo.fi", "internet_access": "wlan", "name": "Haukilahden kirjasto", "name:fi": "Haukilahden kirjasto", "name:sv": "G\u00e4ddviks bibliotek", "operator": "Helmet / Espoon kaupunki", "operator:type": "public", "phone": "(09) 8165 7717", "website": "https://www.helmet.fi/haukilahdenkirjasto"}}, {"type": "node", "id": 4833956196, "lat": 60.2847732, "lon": 24.9590102, "tags": {"addr:city": "Vantaa", "addr:housenumber": "1", "addr:postcode": "01520", "addr:street": "Hagelstamintie", "amenity": "library", "name": "Pointin kirjasto", "name:en": "Point Library", "name:fi": "Pointin kirjasto", "name:sv": "Points bibliotek", "website": "https://www.helmet.fi/fi-FI/Kirjastot_ja_palvelut/Pointin_kirjasto", "wikidata": "Q77562930", "wikimedia_commons": "Category:Point Library (Vantaa)", "wikipedia": "fi:Pointin kirjasto"}}, {"type": "node", "id": 4839250422, "lat": 60.2119619, "lon": 25.0803725, "tags": {"addr:city": "Helsinki", "addr:housenumber": "1", "addr:postcode": "00900", "addr:street": "Turunlinnantie", "amenity": "library", "email": "itakeskuksen_kirjasto@hel.fi", "internet_access": "yes", "name": "It\u00e4keskuksen kirjasto", "name:fi": "It\u00e4keskuksen kirjasto", "name:sv": "\u00d6stra centrums bibliotek", "operator": "Helme", "phone": "09 3108 5090", "toilets:wheelchair": "yes", "website": "https://www.helmet.fi/fi-FI/Kirjastot_ja_palvelut/Itakeskuksen_kirjasto", "wheelchair": "yes"}}, {"type": "node", "id": 4904523122, "lat": 60.201134, "lon": 24.9657424, "tags": {"amenity": "library", "name": "Arcadan kirjasto", "name:fi": "Arcadan kirjasto", "name:sv": "Arcadas bibliotek", "website": "https://arcada.finna.fi/"}}, {"type": "node", "id": 4928577122, "lat": 60.2081434, "lon": 25.0736332, "tags": {"amenity": "library", "email": "palvelut@celia.fi", "name": "Celia", "website": "https://www.celia.fi/"}}, {"type": "node", "id": 5012868057, "lat": 60.1870221, "lon": 24.8210721, "tags": {"amenity": "library", "check_date": "2023-06-08", "level": "0", "name": "Learning Hub Greenhouse", "opening_hours": "Mo-Th 08:00-19:45; Fr 08:00-17:45; Jun-Aug 08:00-15:30; PH off", "operator": "Aalto University"}}, {"type": "node", "id": 5447634586, "lat": 60.1992455, "lon": 24.9687552, "tags": {"addr:city": "Helsinki", "addr:housenumber": "2", "addr:postcode": "00580", "addr:street": "Kyl\u00e4saarenkuja", "amenity": "library", "name": "Diakonia-ammattikorkeakoulun kirjasto"}}, {"type": "node", "id": 5519251817, "lat": 60.1729988, "lon": 24.937853}, {"type": "node", "id": 5519251819, "lat": 60.1743574, "lon": 24.9382899}, {"type": "node", "id": 5519251820, "lat": 60.1743427, "lon": 24.937717}, {"type": "node", "id": 5548086288, "lat": 60.1734796, "lon": 24.9375571}, {"type": "node", "id": 5548086289, "lat": 60.1735039, "lon": 24.937551}, {"type": "node", "id": 5548086290, "lat": 60.1735244, "lon": 24.9375483}, {"type": "node", "id": 5548086291, "lat": 60.1734587, "lon": 24.9375676}, {"type": "node", "id": 5548086294, "lat": 60.173538, "lon": 24.9375475}, {"type": "node", "id": 5753256123, "lat": 60.1832551, "lon": 24.9174894}, {"type": "node", "id": 5753256124, "lat": 60.1832261, "lon": 24.9171745}, {"type": "node", "id": 6050342284, "lat": 60.2278568, "lon": 24.962768, "tags": {"entrance": "service"}}, {"type": "node", "id": 6113853714, "lat": 60.1731296, "lon": 24.9382131, "tags": {"entrance": "main"}}, {"type": "node", "id": 6297428285, "lat": 60.2463799, "lon": 24.866986, "tags": {"access": "yes", "addr:city": "Helsinki", "addr:housenumber": "7", "addr:postcode": "00410", "addr:street": "Luutnantinpolku", "addr:unit": "LT 3", "amenity": "library", "name": "Rajatiedon kirjasto", "name:fi": "Rajatiedon erikoiskirjasto", "opening_hours": "We-Fr 12:00-18:00; Sa 12:00-15:00", "operator": "Rajatiedon Yhteisty\u00f6 ry", "operator:type": "ngo", "website": "https://www.rajatieto.fi/"}}, {"type": "node", "id": 6432158011, "lat": 60.2261165, "lon": 24.860429, "tags": {"addr:housenumber": "1 C1", "addr:postcode": "00370", "addr:street": "Jousipolku", "amenity": "library", "email": "pitajanmaen_kirjasto@hel.fi", "internet_access": "wlan", "name": "Pit\u00e4j\u00e4nm\u00e4en kirjasto", "name:fi": "Pit\u00e4j\u00e4nm\u00e4en kirjasto", "name:sv": "Sockenbacka bibliotek", "opening_hours": "Mo-Th 09:00-20:00; Fr 09:00-16:00; Sa 10:00-16:00; Su off", "operator": "Helsingin kaupunki", "phone": "+358 9 3108 5037", "website": "https://www.helmet.fi/pitajanmaenkirjasto"}}, {"type": "node", "id": 6579852493, "lat": 60.174353, "lon": 24.938131, "tags": {"entrance": "main"}}, {"type": "node", "id": 6703588596, "lat": 60.2050155, "lon": 24.9616134}, {"type": "node", "id": 6703588603, "lat": 60.205006, "lon": 24.9616365}, {"type": "node", "id": 6703588613, "lat": 60.2050102, "lon": 24.9616308}, {"type": "node", "id": 6703588614, "lat": 60.2050135, "lon": 24.9616229}, {"type": "node", "id": 6787560177, "lat": 60.1834235, "lon": 24.9178458, "tags": {"access": "yes", "automatic_door": "no", "door": "hinged", "entrance": "main", "wheelchair": "yes"}}, {"type": "node", "id": 6787560178, "lat": 60.1834118, "lon": 24.9173573, "tags": {"access": "yes", "automatic_door": "no", "door": "hinged", "entrance": "yes", "wheelchair": "limited"}}, {"type": "node", "id": 7126400055, "lat": 60.2462839, "lon": 24.860212}, {"type": "node", "id": 7141121768, "lat": 60.2047007, "lon": 24.9619936}, {"type": "node", "id": 7141285249, "lat": 60.2051426, "lon": 24.9624565}, {"type": "node", "id": 7149715580, "lat": 60.2216162, "lon": 24.9020111, "tags": {"addr:city": "Helsinki", "addr:housenumber": "4", "addr:postcode": "00400", "addr:street": "Ilkantie", "amenity": "library", "email": "kirjasto.helsinki@humak.fi", "name": "Kuurojen liitto / Humak Helsingin TKI-keskus", "operator": "Humanistinen ammattikorkeakoulu", "phone": "040 587 2135", "website": "https://www.humak.fi/humak/kirjastopalvelut/"}}, {"type": "node", "id": 7236587828, "lat": 60.2949578, "lon": 25.0421745, "tags": {"access": "yes", "entrance": "main", "level": "0"}}, {"type": "node", "id": 7676757012, "lat": 60.1664205, "lon": 24.9366195, "tags": {"addr:housenumber": "16", "addr:street": "Kalevankatu", "amenity": "library", "name": "V\u00e4est\u00f6liiton kirjasto"}}, {"type": "node", "id": 7707562463, "lat": 60.1851158, "lon": 24.9661437, "tags": {"addr:city": "Helsinki", "addr:housenumber": "25", "addr:postcode": "00500", "addr:street": "S\u00f6rn\u00e4isten rantatie", "addr:unit": "A", "amenity": "library", "email": "kirjasto@kavi.fi", "name": "Kavi kansallinen audiovisuaalinen instituutti kirjasto", "name:en": "National Audiovisual Institute Library", "name:sv": "KAVIs bibliotek", "operator": "Kavi", "phone": "02 9533 8006", "website": "https://kavi.fi/erikoiskirjasto-sornaisissa/"}}, {"type": "node", "id": 7726903455, "lat": 60.1718156, "lon": 24.93678, "tags": {"addr:city": "Helsinki", "addr:housenumber": "2", "addr:postcode": "00100", "addr:street": "Mannerheiminaukio", "amenity": "library", "description": "Kirjasto:\n\nKirjaston toimipisteet sijaitsevat Ateneumissa ja Kiasmassa. Ateneumin tutkijakirjastossa on Suomen taiteen historiaan liittyv\u00e4\u00e4 aineistoa 1800-luvun puoliv\u00e4list\u00e4 l\u00e4htien. Kiasma-kirjastossa on nykytaiteen aineistoa 1960-luvulta l\u00e4htien.", "email": "tutkimus@kansallisgalleria.fi", "name": "Kiasma-kirjasto (Kansallisgallerian kirjasto)", "name:en": "Finnish National Gallery\u2019s archive collections and library", "name:sv": "Finlands Nationalgalleris arkivsamlingar och bibliotek", "operator": "Kansallisgalleria", "website": "https://www.kansallisgalleria.fi/fi/Kirjasto"}}, {"type": "node", "id": 7764993079, "lat": 60.3239011, "lon": 25.0575654, "tags": {"addr:city": "Vantaa", "addr:housenumber": "1", "addr:postcode": "01400", "addr:street": "Ojalehdonkuja", "amenity": "library", "email": "koivukyla.kirjasto@vantaa.fi", "name": "Koivukyl\u00e4n kirjasto", "name:en": "Library Koivukyl\u00e4", "name:se": "Koivukyl\u00e4 girjer\u00e1dju", "name:sv": "Bj\u00f6rkby bibliotek", "operator": "Helmet", "phone": "043 825 0961", "website": "https://www.helmet.fi/fi-FI/Kirjastot_ja_palvelut/Koivukylan_kirjasto"}}, {"type": "node", "id": 7781087293, "lat": 60.2436156, "lon": 25.0855574, "tags": {"addr:city": "Helsinki", "addr:housenumber": "5", "addr:postcode": "00940", "addr:street": "Kontukuja", "amenity": "library", "description": "HUOM: Helsingin kaupunki pyrkii est\u00e4m\u00e4\u00e4n koronaviruksen levi\u00e4mist\u00e4 ja suojelemaan riskiryhm\u00e4ss\u00e4 olevia. Kaikki palvelukeskukset suljetaan 16.3.2020 alkaen toistaiseksi ja my\u00f6s kirjaston toiminta palvelukeskuksissa on toistaiseksi keskeytetty.", "name": "Kontulan palvelukeskuksen kirjasto", "name:en": "Library of Kontula\u00b4s Service Center", "name:sv": "Kontula servicecentral bibliotek", "opening_hours:covid19": "Suljettu / Closed", "operator": "Helmet"}}, {"type": "node", "id": 7784183480, "lat": 60.1784699, "lon": 24.9548432, "tags": {"addr:city": "Helsinki", "addr:housenumber": "6", "addr:postcode": "00530", "addr:street": "Hakaniemenranta", "alt_name": "Kotimaisten kielten keskuksen Kotuksen arkisto", "amenity": "library", "description": "Kotimaisten kielten keskuksella on laajat arkistot. Arkistot sijaitsevat Kotuksen toimitiloissa Helsingin Hakaniemess\u00e4 (Hakaniemenranta 6). Arkistojen kokoelmat on koottu yli sadan vuoden aikana. Paperimuotoisten kokoelmien lis\u00e4ksi arkistoissa on \u00e4\u00e4nitte", "email": "arkisto@kotus.fi", "name": "Kotimaisten kielten keskuksen arkisto", "name:sv": "Institutet f\u00f6r de inhemska spr\u00e5kens bibliotek", "operator": "Kotimaisten kielten keskus", "website": "https://www.kotus.fi/palvelut/arkistot"}}, {"type": "node", "id": 7831686072, "lat": 60.1557423, "lon": 24.9387824, "tags": {"addr:city": "Helsinki", "addr:housenumber": "1", "addr:postcode": "00150", "addr:street": "Armfeltintie", "amenity": "library", "description": "Lapsitiedon erikoiskirjasto, joka tarjoaa tietoa lasten ja perheiden asemasta ja oikeuksista. Kokoelmamme kattavat tieteellist\u00e4 kirjallisuutta niin sosiaali-, yhteiskunta- kuin oikeustieteiden alalta. Meilt\u00e4 l\u00f6ytyy lis\u00e4ksi kotimaisia ja ulkomaisia tieteel", "email": "kirjasto@lskl.fi", "name": "Lastensuojelun Keskusliiton kirjasto ja tietopalvelu", "name:en": "Central Union for Child Welfare Library", "name:sv": "Centralf\u00f6rbundet f\u00f6r Barnskydd bibliotek", "opening_hours:covid19": "closed", "operator": "Lastensuojelun Keskusliitto", "operator:type": "ngo", "phone": "+358 44 5629 552", "website": "https://www.lskl.fi/kirjasto/haku"}}, {"type": "node", "id": 7864227537, "lat": 60.1701795, "lon": 24.9563401, "tags": {"addr:city": "Helsinki", "addr:housenumber": "1", "addr:postcode": "00170", "addr:street": "Hallituskatu", "amenity": "library", "description": "SKS:n kirjasto on kaikille avoin tieteellinen erikoiskirjasto, jonka keskeisaloja ovat kulttuurien tutkimus ja kirjallisuudentutkimus.   Jos tarvitset apua Hallituskatu 1:een p\u00e4\u00e4st\u00e4ksesi, soita numeroon 040 534 8933 tai paina Mariankadun oven nappia.", "email": "kirjasto@finlit.fi", "name": "Suomalaisen kirjallisuuden seuran SKS:n kirjasto", "name:en": "The Library of SKS Suomalaisen kirjallisuuden seura", "name:sv": "SKS Suomalaisen kirjallisuuden seura bibliotek", "opening_hours": "Mo-Th 10:00-18:00; Fr 10:00-16:00", "operator": "Suomalaisen kirjallisuuden seura SKS", "phone": "+358 20 113 1272", "website": "https://www.finlit.fi/fi/kirjasto", "wheelchair": "limited"}}, {"type": "node", "id": 7864238565, "lat": 60.1727872, "lon": 24.9567094, "tags": {"addr:city": "Helsinki", "addr:housenumber": "19", "addr:postcode": "00170", "addr:street": "Mariankatu", "addr:unit": "E", "amenity": "library", "description": "Kirjallisuuden ja kulttuurihistorian aineistot. Yhteystiedot ja aukioloajat internet-sivuilla. SKS:n arkiston tiloihin Mariankatu 19 E:ss\u00e4 (Helsinki) ei ole esteet\u00f6nt\u00e4 sis\u00e4\u00e4nk\u00e4ynti\u00e4. Ota yhteytt\u00e4 etuk\u00e4teen, niin toimitamme aineistoja Hallituskatu 1:een.", "email": "arkisto@finlit.fi", "name": "Suomalaisen kirjallisuuden seuran SKS:n arkisto", "name:en": "SKS Archive", "name:sv": "SKS:s bibliotek", "operator": "Suomalaisen kirjallisuuden seura SKS", "phone": "+358 201 131 262", "website": "https://www.finlit.fi/fi/arkisto", "wheelchair": "no"}}, {"type": "node", "id": 7864299634, "lat": 60.170177, "lon": 24.956122, "tags": {"addr:city": "Helsinki", "addr:housenumber": "1", "addr:postcode": "00170", "addr:street": "Hallituskatu", "amenity": "library", "description": "Perinteen ja nykykulttuurin aineistot.\n\nJos tarvitset apua Hallituskatu 1:een p\u00e4\u00e4st\u00e4ksesi, soita numeroon 040 534 8933 tai paina Mariankadun puoleisella ulko-ovella Neuvonta-painiketta, niin tulemme hakemaan sinut sis\u00e4lle. P\u00e4\u00e4ovesta kuljettaessa portaita.", "email": "arkisto@finlit.fi", "name": "Suomalaisen kirjallisuuden seuran SKS:n arkiston tutkijasalit", "name:en": "SKS Archive", "operator": "Suomalaisen kirjallisuuden seura SKS", "phone": "+358 20 113 1240", "website": "https://www.finlit.fi/fi/arkisto", "wheelchair": "limited"}}, {"type": "node", "id": 7875215708, "lat": 60.1851784, "lon": 24.9661679, "tags": {"addr:city": "Helsinki", "addr:housenumber": "25", "addr:postcode": "00500", "addr:street": "S\u00f6rn\u00e4isten rantatie", "addr:unit": "A 1", "amenity": "library", "description": "Ty\u00f6v\u00e4enliikkeen kirjasto on nykyty\u00f6el\u00e4m\u00e4\u00e4n, ty\u00f6v\u00e4enhistoriaan ja -kulttuuriin sek\u00e4 yhteiskunnallisiin aiheisiin keskittynyt erikoiskirjasto. Kirjaston aineistot on luetteloitu Helka-tietokantaan ja Helda-julkaisuarkistoon sek\u00e4 Finnaan.", "email": "perinne@tyovaenperinne.fi", "name": "Ty\u00f6v\u00e4enliikkeen kirjasto", "name:en": "Library of the Labour Movement", "name:fi": "Ty\u00f6v\u00e4enliikkeen kirjasto", "name:sv": "Arbetarr\u00f6relsens bibliotek", "operator": "Ty\u00f6v\u00e4enperinne - Arbetartradition ry", "phone": "09 766 429", "website": "https://www.tyovaenperinne.fi/kirjasto/"}}, {"type": "node", "id": 7881104939, "lat": 60.1674976, "lon": 24.6636584}, {"type": "node", "id": 7881104940, "lat": 60.1674833, "lon": 24.6635968}, {"type": "node", "id": 7881104941, "lat": 60.167492, "lon": 24.6633897}, {"type": "node", "id": 7881104942, "lat": 60.1675209, "lon": 24.6633625}, {"type": "node", "id": 7881104943, "lat": 60.1677201, "lon": 24.6633483}, {"type": "node", "id": 7881104944, "lat": 60.1676933, "lon": 24.6633735}, {"type": "node", "id": 7881104945, "lat": 60.1677019, "lon": 24.6634102}, {"type": "node", "id": 7881104946, "lat": 60.1676784, "lon": 24.6634322}, {"type": "node", "id": 7881104947, "lat": 60.1676884, "lon": 24.6634752}, {"type": "node", "id": 7881104948, "lat": 60.1677228, "lon": 24.6634971}, {"type": "node", "id": 7881104949, "lat": 60.1677676, "lon": 24.6634549}, {"type": "node", "id": 7881104950, "lat": 60.167774, "lon": 24.6634823}, {"type": "node", "id": 7890099325, "lat": 60.1880648, "lon": 24.594687}, {"type": "node", "id": 7890099377, "lat": 60.1881381, "lon": 24.5948884, "tags": {"entrance": "main"}}, {"type": "node", "id": 7890106985, "lat": 60.1879892, "lon": 24.5947278}, {"type": "node", "id": 7890106986, "lat": 60.1879986, "lon": 24.5947537}, {"type": "node", "id": 8163677365, "lat": 60.1842318, "lon": 24.8187519, "tags": {"addr:city": "Espoo", "addr:housenumber": "6", "addr:postcode": "02150", "addr:street": "Tietotie", "amenity": "library", "name": "Otaniemen kirjasto", "name:en": "Otaniemi library", "name:ru": "\u0411\u0438\u0431\u043b\u0438\u043e\u0442\u0435\u043a\u0430 \u041e\u0442\u0430\u043d\u0438\u0435\u043c\u0438", "name:sv": "Otn\u00e4s bibliotek", "opening_hours": "Mo-Su 06:00-22:00", "operator": "Helmet", "operator:type": "public", "operator:wikidata": "Q11861998", "phone": "040 507 8204", "website": "https://helmet.fi/fi-FI/Kirjastot_ja_palvelut/Otaniemen_kirjasto"}}, {"type": "node", "id": 8454169422, "lat": 60.1836418, "lon": 24.9538995}, {"type": "node", "id": 8911452721, "lat": 60.2286897, "lon": 24.6205169, "tags": {"FIXME": "Library moved to new schoo building, address might be wrong", "addr:city": "Espoo", "addr:housenumber": "3", "addr:postcode": "02810", "addr:street": "Karhuniitynkuja", "amenity": "library", "email": "kirjasto.karhusuo@espoo.fi", "name": "Karhusuon kirjasto", "name:fi": "Karhusuon kirjasto", "name:sv": "Bj\u00f6rnk\u00e4rrs bibliotek", "phone": "(09) 8165 3781", "website": "https://www.helmet.fi/fi-FI/Kirjastot_ja_palvelut/Karhusuon_kirjasto"}}, {"type": "node", "id": 9289758188, "lat": 60.170249, "lon": 24.9506865}, {"type": "node", "id": 9289758189, "lat": 60.1704408, "lon": 24.9506435}, {"type": "node", "id": 9289758190, "lat": 60.1702484, "lon": 24.9506628}, {"type": "node", "id": 9289758191, "lat": 60.1704414, "lon": 24.9506672}, {"type": "node", "id": 9289758192, "lat": 60.1704594, "lon": 24.950031}, {"type": "node", "id": 9453804432, "lat": 60.2040163, "lon": 24.8059028}, {"type": "node", "id": 9453804473, "lat": 60.2041108, "lon": 24.8058045, "tags": {"entrance": "yes"}}, {"type": "node", "id": 9644263133, "lat": 60.149657, "lon": 24.654763, "tags": {"access": "yes", "addr:city": "Espoo", "addr:housenumber": "8", "addr:postcode": "02320", "addr:street": "Espoonlahdenkatu", "amenity": "library", "email": "kirjasto.lippulaiva@espoo.fi", "fixme": "real location", "internet_access": "wlan", "internet_access:fee": "no", "level": "2", "name": "Lippulaivan kirjasto", "name:en": "Lippulaiva Library", "name:fi": "Lippulaivan kirjasto", "name:ru": "\u0411\u0438\u0431\u043b\u0438\u043e\u0442\u0435\u043a\u0430 \u041b\u0438\u043f\u043f\u0443\u043b\u0430\u0439\u0432\u0430", "name:sv": "Lippulaivabiblioteket", "note": "Do not change floor/level, level=2 means 3 in Finland!", "opening_hours": "Mo-Fr 08:00-20:00; Sa-Su 10:00-18:00", "operator": "Espoon kaupunginkirjasto", "operator:type": "public", "phone": "09 8163 5097", "ref:isil": "FI-Espoo", "start_date": "2022-03-31", "website": "https://www.helmet.fi/fi-FI/Kirjastot_ja_palvelut/Lippulaivan_kirjasto", "wheelchair": "yes", "wikipedia": "fi:Lippulaivan kirjasto"}}, {"type": "node", "id": 9893730245, "lat": 60.1795171, "lon": 25.0515727}, {"type": "node", "id": 9893730251, "lat": 60.1797191, "lon": 25.0511375}, {"type": "node", "id": 9893730252, "lat": 60.1797314, "lon": 25.0512491}, {"type": "node", "id": 9893730253, "lat": 60.1796909, "lon": 25.0512669}, {"type": "node", "id": 9893730254, "lat": 60.1797436, "lon": 25.0517522}, {"type": "node", "id": 9893730255, "lat": 60.1796784, "lon": 25.0517814}, {"type": "node", "id": 9893730256, "lat": 60.1796538, "lon": 25.0515586}, {"type": "node", "id": 9893730257, "lat": 60.1795863, "lon": 25.0515887}, {"type": "node", "id": 9893730258, "lat": 60.1796109, "lon": 25.0518115}, {"type": "node", "id": 9893730259, "lat": 60.1795466, "lon": 25.0518402}, {"type": "node", "id": 9893730260, "lat": 60.179522, "lon": 25.0516174}, {"type": "node", "id": 9893730265, "lat": 60.1794872, "lon": 25.0513019}, {"type": "node", "id": 9893730266, "lat": 60.1794808, "lon": 25.0512438}, {"type": "node", "id": 9894240047, "lat": 60.179711, "lon": 25.0517668, "tags": {"entrance": "yes", "level": "1"}}, {"type": "node", "id": 9914281983, "lat": 60.1832691, "lon": 24.9170032}, {"type": "node", "id": 9914281984, "lat": 60.1832577, "lon": 24.9176425}, {"type": "node", "id": 9936621334, "lat": 60.2272141, "lon": 25.0127661, "tags": {"entrance": "main", "ref": "E"}}, {"type": "node", "id": 10049929076, "lat": 60.2248338, "lon": 24.7370106, "tags": {"amenity": "library", "name": "Viherlaakson uusi kirjasto", "source": "https://www.helmet.fi/viherlaaksonkirjasto"}}, {"type": "node", "id": 10203676864, "lat": 60.2108453, "lon": 24.9471093, "tags": {"addr:city": "Helsinki", "addr:housenumber": "5", "addr:postcode": "00610", "addr:street": "V\u00e4in\u00f6l\u00e4nkatu", "amenity": "library", "email": "kapylan_kirjasto@hel.fi", "internet_access": "wlan", "internet_access:fee": "no", "name": "K\u00e4pyl\u00e4n kirjasto", "name:en": "Library K\u00e4pyl\u00e4", "name:fi": "K\u00e4pyl\u00e4n kirjasto", "name:se": "K\u00e4pyl\u00e4 girjer\u00e1dju", "name:sv": "Kottby bibliotek", "opening_hours": "Mo-Th 09:00-20:00; Fr 09:00-16:00; Sa 10:00-16:00", "operator": "Helmet", "operator:type": "public", "operator:wikidata": "Q11861998", "payment:cash": "no", "payment:coins": "no", "payment:credit_cards": "yes", "payment:debit_cards": "yes", "phone": "+358931085061", "website": "https://www.helmet.fi/kapylankirjasto", "wheelchair": "yes"}}, {"type": "node", "id": 10810651836, "lat": 60.1904921, "lon": 24.9073094, "tags": {"addr:city": "Helsinki", "addr:housenumber": "4", "addr:postcode": "00290", "addr:street": "Haartmaninkatu", "amenity": "library", "loc_name": "Terkko", "name": "Meilahden kampuskirjasto", "name:en": "Meilahti Campus Library", "name:fi": "Meilahden kampuskirjasto", "name:sv": "Campus\u00adbiblioteket i Mejlans", "old_name": "Terveystieteiden keskuskirjasto", "old_name:en": "Central library for health sciences", "old_name:fi": "Terveystieteiden keskuskirjasto", "old_name:sv": "Centralbiblioteket f\u00f6r h\u00e4lsovetenskap"}}, {"type": "node", "id": 10925843394, "lat": 60.1836236, "lon": 24.9533996}, {"type": "node", "id": 11053694948, "lat": 60.2278428, "lon": 25.0128585}, {"type": "node", "id": 11053694949, "lat": 60.2278428, "lon": 25.0129158}, {"type": "node", "id": 11252503083, "lat": 60.3132397, "lon": 24.8456642, "tags": {"addr:city": "Vantaa", "addr:country": "FI", "addr:housenumber": "69", "addr:postcode": "01700", "addr:street": "Vantaankoskentie", "amenity": "library", "level": "1", "name": "Mosaiikin kirjasto", "name:fi": "Mosaiikin kirjasto", "name:sv": "Mosaiks bibliotek", "opening_hours": "Mo-Th 09:00-20:00; Fr,Sa 09:00-16:00", "website": "https://www.helmet.fi/fi-FI/Kirjastot_ja_palvelut/Mosaiikin_kirjasto"}}, {"type": "way", "id": 8059222, "nodes": [60257180, 1484656949, 60257181, 60257182, 60257183, 9936621334, 339300971, 60257184, 339300948, 60257185, 339300951, 60257186, 339300953, 60257187, 339300956, 60257188, 60257189, 339300959, 60257190, 11053694948, 339300961, 11053694949, 60257191, 60257192, 339300964, 60257193, 339300966, 60257194, 60257195, 339300969, 60257196, 60257180], "tags": {"addr:city": "Helsinki", "addr:country": "FI", "addr:housenumber": "11", "addr:street": "Viikinkaari", "amenity": "library", "building": "yes", "building:levels": "3", "building:levels:underground": "1", "layer": "1", "name": "Infokeskus Korona", "name:fi": "Infokeskus Korona"}}, {"type": "way", "id": 16790294, "nodes": [173740905, 6703588603, 6703588613, 6703588614, 6703588596, 173740903, 2742138030, 173740902, 7141285249, 2742138028, 432588868, 2537914960, 173740891, 432588870, 7141121768, 2537914950, 432588869, 2537914954, 173740905], "tags": {"addr:city": "Helsinki", "addr:housenumber": "2", "addr:postcode": "00560", "addr:street": "Gustaf H\u00e4llstr\u00f6min katu", "amenity": "library", "building": "public", "email": "kirjasto@helsinki.fi", "int_name": "Campus Library", "internet_access": "wlan", "internet_access:fee": "no", "internet_access:ssid": "eduroam", "name": "Kumpulan kampuskirjasto", "name:en": "Kumpula Campus Library", "name:fi": "Kumpulan kampuskirjasto", "name:sv": "Gumt\u00e4kts kampusbibliotek", "operator": "Helsingin yliopisto", "operator:type": "university", "phone": "+3582941 50881", "ref": "FI-Hs"}}, {"type": "way", "id": 20010806, "nodes": [1417861618, 1417861593, 1417861600, 1719693672, 1417861583, 1719693674, 1719693684, 1417861596, 1719693680, 1417861594, 1719693677, 1417861587, 1417861586, 1719693689, 1417861590, 1417861632, 1719693669, 1417861613, 1417861614, 1719693667, 1417861617, 1417861591, 1719693666, 1417861589, 1417861605, 1719693648, 1719693646, 1417861622, 1719693664, 1417861602, 1719693650, 1719693660, 1417861604, 1719693643, 1417861615, 1417861595, 1417861603, 8454169422, 1417861585, 1417861584, 211044858, 211044860, 1417861620, 1417861601, 501610897, 1417861616, 1417861588, 211044855, 10925843394, 211044857, 1417861592, 1417861618], "tags": {"addr:city": "Helsinki", "addr:country": "FI", "addr:housenumber": "11", "addr:postcode": "00530", "addr:street": "Viides linja", "amenity": "library", "architect": "Karl H\u00e5rd af Segerstad", "building": "public", "email": "kallion_kirjasto@hel.fi", "internet_access": "wlan", "internet_access:fee": "no", "name": "Kallion kirjasto", "name:sv": "Bergh\u00e4lls bibliotek", "opening_hours": "Aug-May: Mo-Th 09:00-20:00, Fr 09:00-18:00, Sa-Su 10:00-16:00; PH off", "opening_hours:url": "http://www.helmet.fi/en-US/Libraries_and_services/Kallio_Library/Opening_hours", "operator": "Helmet", "operator:type": "government", "phone": "+358 9 3108 5953", "start_date": "1912", "website": "https://www.helmet.fi/fi-FI/Kirjastot_ja_palvelut/Kallion_kirjasto", "wheelchair": "yes", "wikidata": "Q10428420", "wikimedia_commons": "Category:Kallio Library", "wikipedia": "fi:Kallion kirjasto"}}, {"type": "way", "id": 24407402, "nodes": [264957720, 1513594814, 1513594816, 264957721, 264958345, 6050342284, 1513594784, 1513594785, 264957723, 556363477, 264957720], "tags": {"addr:city": "Helsinki", "addr:housenumber": "27", "addr:postcode": "00640", "addr:street": "Kyl\u00e4nvanhimmantie", "amenity": "library", "building": "yes", "name": "Oulunkyl\u00e4n kirjasto", "name:fi": "Oulunkyl\u00e4n kirjasto", "name:sv": "\u00c5ggelby bibliotek", "website": "http://helmet.fi/oulunkylankirjasto", "wheelchair": "yes"}}, {"type": "way", "id": 27634544, "nodes": [303520251, 1009288205, 1009288131, 303520256, 303520258, 1009287771, 1009288286, 1009287751, 1009288080, 1009287749, 1009287808, 303520254, 303520251], "tags": {"addr:city": "Helsinki", "addr:country": "FI", "addr:housenumber": "22", "addr:postcode": "00330", "addr:street": "Riihitie", "amenity": "library", "building": "yes", "name": "Munkkiniemen kirjasto", "name:sv": "Munksn\u00e4s bibliotek", "opening_hours": "Mo-Th 09:00-20:00; Fr 09:00-16:00; Sa 10:00-16:00", "website": "https://www.helmet.fi/munkkiniemi"}}, {"type": "way", "id": 28657594, "nodes": [314947795, 9453804473, 314947802, 314947797, 314947798, 314947800, 314947801, 314947799, 9453804432, 314947796, 314947795], "tags": {"addr:city": "Espoo", "addr:housenumber": "24", "addr:postcode": "02140", "addr:street": "Kurkijoentie", "amenity": "library", "building": "yes", "email": "kirjasto.laajalahti@espoo.fi", "name": "Laajalahden kirjasto", "name:en": "Laajalahti Library", "name:fi": "Laajalahden kirjasto", "name:sv": "Bredviks bibliotek", "opening_hours": "Tu,We,Fr 09:00-16:00; Mo,Th 13:00-20:00; Sa,Su off", "phone": "09 8165 7714", "website": "https://www.helmet.fi/fi-FI/Kirjastot_ja_palvelut/Laajalahden_kirjasto", "wheelchair": "limited"}}, {"type": "way", "id": 30607023, "nodes": [338441852, 338441853, 338441854, 338441855, 1765207662, 338441852], "tags": {"addr:city": "Helsinki", "addr:country": "FI", "addr:housenumber": "3", "addr:postcode": "00770", "addr:street": "Jakom\u00e4enpolku", "amenity": "library", "building": "civic", "building:levels": "1", "contact:email": "jakomaen_kirjasto@hel.fi", "contact:fax": "+358 9 3108 5977", "contact:phone": "+358 9 3108 5077", "contact:website": "http://www.helmet.fi/fi-FI/Kirjastot_ja_palvelut/Jakomaen_kirjasto", "email": "jakomaen_kirjasto@hel.fi", "internet_access": "terminal", "internet_access:fee": "no", "name": "Jakom\u00e4en kirjasto", "name:fi": "Jakom\u00e4en kirjasto", "name:sv": "Jakobacka bibliotek", "opening_hours": "Mo-Th 09:00-20:00; Fr 09:00-16:00; Sa 10:00-16:00", "operator": "Helmet", "phone": "+358 9 3108 5694", "roof:levels": "0", "roof:shape": "flat", "website": "https://www.helmet.fi/fi-FI/Kirjastot_ja_palvelut/Jakomaen_kirjasto", "wheelchair": "yes"}}, {"type": "way", "id": 30620242, "nodes": [338637733, 338637734, 338637735, 338637736, 338637737, 338637738, 338637739, 338637740, 338637741, 7236587828, 338637807, 3412571233, 338637733], "tags": {"addr:city": "Vantaa", "addr:country": "FI", "addr:housenumber": "4", "addr:postcode": "01300", "addr:street": "Lummetie", "amenity": "library", "building": "yes", "building:levels": "3", "email": "tikkurila.kirjasto@vantaa.fi", "name": "Tikkurilan kirjasto", "name:en": "Tikkurila Library", "name:fi": "Tikkurilan kirjasto", "name:sv": "Dickursby bibliotek", "opening_hours": "Mo-Th 08:00-20:00; Sa,Su 09:00-16:00; Fr 08:00-16:00", "phone": "043 824 8307", "url": "http://www.helmet.fi", "website": "https://www.helmet.fi/fi-FI/Kirjastot_ja_palvelut/Tikkurilan_kirjasto", "wikidata": "Q11897603", "wikimedia_commons": "Category:Tikkurila Library", "wikipedia": "fi:Tikkurilan kirjasto"}}, {"type": "way", "id": 33850215, "nodes": [387801955, 387801956, 387801957, 188804752, 387801958, 387801959, 387801955], "tags": {"addr:city": "Vantaa", "addr:housenumber": "4", "addr:postcode": "01710", "addr:street": "Mantelikuja", "amenity": "library", "building": "commercial", "name": "P\u00e4hkin\u00e4rinteen kirjasto", "name:fi": "P\u00e4hkin\u00e4rinteen kirjasto", "name:sv": "Hasselbackens bibliotek", "website": "https://www.helmet.fi/fi-FI/Kirjastot_ja_palvelut/Pahkinarinteen_kirjasto", "wikidata": "Q31088037", "wikipedia": "fi:P\u00e4hkin\u00e4rinteen kirjasto"}}, {"type": "way", "id": 39181411, "nodes": [469348742, 469348743, 469348744, 469348745, 469348746, 469348747, 469348748, 469348749, 469348742], "tags": {"addr:housenumber": "16", "addr:postcode": "00320", "addr:street": "Isonnevantie", "addr:unit": "B", "amenity": "library", "architect": "Ferd. Salokangas", "building": "yes", "email": "etela-haagan_kirjasto@hel.fi", "name": "Etel\u00e4-Haagan kirjasto", "name:fi": "Etel\u00e4-Haagan kirjasto", "name:sv": "S\u00f6dra Haga bibliotek", "opening_hours": "Mo-Th 09:00-20:00; Fr 09:00-16:00; Sa 10:00-16:00", "phone": "+358 9 3108 5032", "source:architect": "\"Haagan rakennukset ja arvotus\", Helsingin kaupunkisuunnitteluviraston julkaisuja 1998:4", "source:start_date": "\"Haagan rakennukset ja arvotus\", Helsingin kaupunkisuunnitteluviraston julkaisuja 1998:4", "start_date": "1964", "website": "https://www.helmet.fi/etelahaagankirjasto"}}, {"type": "way", "id": 48287965, "nodes": [613529882, 613529883, 613529891, 613529884, 613529885, 613529886, 613529882], "tags": {"addr:city": "Vantaa", "addr:housenumber": "4", "addr:postcode": "01370", "addr:street": "Urheilutie", "amenity": "library", "building": "yes", "email": "hiekkaharju-sandkulla.kirjasto@vantaa.fi", "name": "Hiekkaharjun kirjasto", "name:sv": "Sandkulla bibliotek", "operator": "Helmet kirjastot", "operator:type": "public", "phone": "050 302 8673", "website": "https://www.helmet.fi/sandkullabibliotek", "wikidata": "Q77562815"}}, {"type": "way", "id": 83117525, "nodes": [967072575, 7890099325, 1929157033, 7890099377, 967072576, 967072579, 967072582, 7890106986, 7890106985, 967072575], "tags": {"addr:city": "Espoo", "addr:housenumber": "2", "addr:postcode": "02780", "addr:street": "Hansakallio", "amenity": "library", "building": "yes", "building:levels": "2", "email": "kirjasto.kauklahti@espoo.fi", "name": "Kauklahden kirjasto", "name:fi": "Kauklahden kirjasto", "name:sv": "K\u00f6klax bibliotek", "operator": "Helmet", "phone": "(09) 8165 3778", "website": "https://www.helmet.fi/fi-FI/Kirjastot_ja_palvelut/Kauklahden_kirjasto"}}, {"type": "way", "id": 122595247, "nodes": [1369465806, 1369465802, 1369465803, 9289758190, 9289758188, 376011807, 9289758191, 9289758189, 1369465832, 376011837, 1369465830, 1369465821, 9289758192, 376008169, 1012373646, 1012373625, 1012373641, 206104951, 1369465818, 1012373622, 376008164, 206104952, 369550855, 1369465806], "tags": {"addr:city": "Helsinki", "addr:country": "FI", "addr:housenumber": "36", "addr:postcode": "00170", "addr:street": "Unioninkatu", "amenity": "library", "architect": "Carl Ludvig Engel", "building": "library", "building:levels": "4", "contact:website": "http://www.kansalliskirjasto.fi/", "description": "Rotunda", "email": "kk-palvelu@helsinki.fi", "int_name": "National Library of Finland", "name": "Kansalliskirjasto", "name:da": "Finlands Nationalbibliotek", "name:en": "National Library of Finland", "name:fi": "Kansalliskirjasto", "name:sv": "Nationalbiblioteket", "note": "freedepositlibrary", "opening_hours": "Mo-Th 09:00-20:00; Fr-Sa 09:00-16:00", "operator": "Helsingin yliopisto", "phone": "+358 2941 23196", "website": "https://www.kansalliskirjasto.fi/", "wikidata": "Q420747", "wikipedia": "fi:Kansalliskirjasto (Suomi)"}}, {"type": "way", "id": 128611004, "nodes": [1420808689, 1420808691, 1420808690, 1420808693, 1420808688, 1420808684, 1420808682, 1420808686, 1420808680, 1420808687, 1420808676, 1420808677, 119230075, 1420808670, 1420808668, 1420808669, 605064000, 1420808675, 1420808681, 1420808689], "tags": {"addr:city": "Helsinki", "addr:country": "FI", "addr:housenumber": "5", "addr:postcode": "00510", "addr:street": "P\u00e4ij\u00e4nteentie", "amenity": "library", "building": "yes", "name": "Vallilan kirjasto", "name:fi": "Vallilan kirjasto", "name:sv": "Vallilan kirjasto", "opening_hours": "Mo-Th 09:00-20:00; Fr 09:00-18:00; Sa-Su 10:00-16:00", "phone": "+358 9 3108 5055", "toilets:wheelchair": "yes", "website": "https://www.helmet.fi/fi-FI/Kirjastot_ja_palvelut/Vallilan_kirjasto", "wheelchair": "yes", "wikidata": "Q11900174", "wikipedia": "fi:Vallilan kirjasto"}}, {"type": "way", "id": 138368255, "nodes": [382662487, 9914281983, 1018686616, 1517196308, 6787560178, 1517196314, 6787560177, 1517196311, 1517196305, 1018686500, 9914281984, 251536251, 5753256123, 1018686694, 1517196300, 5753256124, 1018686592, 382662487], "tags": {"addr:city": "Helsinki", "addr:housenumber": "6", "addr:postcode": "00250", "addr:street": "Topeliuksenkatu", "amenity": "library", "building": "public", "building:levels": "3", "email": "toolon_kirjasto@hel.fi", "name": "T\u00f6\u00f6l\u00f6n kirjasto", "name:fi": "T\u00f6\u00f6l\u00f6n kirjasto", "name:sv": "T\u00f6l\u00f6 bibliotek", "opening_hours": "Mo-Th 08:00-20:00; Fr 08:00-18:00; Sa 10:00-16:00; Su 12:00-18:00", "operator": "Helmet", "phone": "+358 9 3108 5925", "website": "https://www.helmet.fi/toolonkirjasto", "wheelchair": "yes", "wikidata": "Q11899285", "wikimedia_commons": "Category:T\u00f6\u00f6l\u00f6 Library", "wikipedia": "fi:T\u00f6\u00f6l\u00f6n kirjasto"}}, {"type": "way", "id": 165537663, "nodes": [1770774094, 7881104939, 7881104940, 1770774099, 7881104941, 7881104942, 1770774093, 1770774113, 7881104943, 7881104944, 7881104945, 7881104946, 7881104947, 1770774119, 7881104948, 7881104949, 7881104950, 1770774123, 1770774130, 1770774132, 1770774133, 1770774112, 1770774110, 1770774102, 1770774094], "tags": {"addr:housenumber": "4", "addr:street": "Oxfotintie", "amenity": "library", "building": "yes", "name": "N\u00f6ykki\u00f6n kirjasto", "name:sv": "N\u00f6ykis bibliotek", "website": "https://www.helmet.fi/fi-FI/Kirjastot_ja_palvelut/Noykkion_kirjasto"}}, {"type": "way", "id": 172197744, "nodes": [1831294141, 1831294129, 1831294140, 1831294128, 1831294144, 1831294148, 1831294147, 1831294149, 1831294146, 155521046, 1831294141], "tags": {"addr:city": "Espoo", "addr:housenumber": "24", "addr:postcode": "02730", "addr:street": "Veininkatu", "amenity": "library", "building": "yes", "building:levels": "1", "email": "kirjasto.laaksolahti@espoo.fi", "name": "Laaksolahden kirjasto", "name:en": "Laaksolahti Library", "name:fi": "Laaksolahden kirjasto", "name:sv": "Dalsviks bibliotek", "operator": "Helmet", "operator:type": "public", "operator:wikidata": "Q11861998", "operator:wikipedia": "fi:Helmet-kirjasto", "phone": "09 8165 7773", "website": "https://www.helmet.fi/fi-FI/Kirjastot_ja_palvelut/Laaksolahden_kirjasto"}}, {"type": "way", "id": 363107942, "nodes": [3673096831, 3673096832, 3673096833, 4256880720, 3673096834, 4256880726, 3673096831], "tags": {"addr:city": "Espoo", "addr:housenumber": "1", "addr:postcode": "02250", "addr:street": "Lillhemtintie", "amenity": "library", "building": "school", "building:part": "yes", "name": "Suurpellon kirjasto", "name:fi": "Suurpellon kirjasto", "name:sv": "Stor\u00e5kerns bibliotek", "website": "https://www.helmet.fi/suurpellonkirjasto"}}, {"type": "way", "id": 596937289, "nodes": [6113853714, 5519251817, 1879339481, 5548086291, 5548086288, 5548086289, 5548086290, 5548086294, 5519251820, 6579852493, 5519251819, 3237174474, 6113853714], "tags": {"addr:city": "Helsinki", "addr:housenumber": "4", "addr:postcode": "00100", "addr:street": "T\u00f6\u00f6l\u00f6nlahdenkatu", "air_conditioning": "yes", "alt_name:ru": "\u0411\u0438\u0431\u043b\u0438\u043e\u0442\u0435\u043a\u0430 Oodi", "amenity": "library", "building": "yes", "building:levels": "4", "check_date:opening_hours": "2023-01-25", "internet_access": "wlan", "name": "Helsingin keskustakirjasto Oodi", "name:en": "Helsinki Central Library Oodi", "name:fi": "Helsingin keskustakirjasto Oodi", "name:fr": "Biblioth\u00e8que centrale d'Helsinki Oodi", "name:ja": "\u30d8\u30eb\u30b7\u30f3\u30ad\u4e2d\u592e\u56f3\u66f8\u9928\u300cOodi\u300d", "name:ru": "\u0411\u0438\u0431\u043b\u0438\u043e\u0442\u0435\u043a\u0430 \u041e\u043e\u0434\u0438", "name:sv": "Helsingfors centrumbibliotek Ode", "opening_hours": "Mo-Fr 08:00-21:00; Sa,Su 10:00-20:00; PH off", "opening_hours:covid19": "Mo-Fr 08:00-20:00; Sa 10:00-18:00", "phone": "+358 9 310 85000", "roof:shape": "flat", "short_name": "Oodi", "website": "https://www.oodihelsinki.fi/", "wheelchair": "limited", "wikidata": "Q18659999", "wikimedia_commons": "Category:Helsinki Central Library Oodi", "wikipedia": "fi:Helsingin keskustakirjasto Oodi"}}, {"type": "way", "id": 762676654, "nodes": [287043656, 7126400055, 2208224925, 287044714, 4394855533, 287043660, 287043658, 287043657, 287043656], "tags": {"addr:city": "Helsinki", "addr:housenumber": "6", "addr:postcode": "00410", "addr:street": "Puustellintie", "amenity": "library", "email": "malminkartanon_kirjasto@hel.fi", "fax": "09 3108 5841", "level": "0", "name": "Malminkartanon kirjasto", "name:en": "Malminkartano Library", "name:fi": "Malminkartanon kirjasto", "name:sv": "Malmg\u00e5rds bibliotek", "opening_hours": "Mo-Th 09:00-19:00; Fr 09:00-16:00; Sa 10:00-16:00", "operator": "Helsingin kapunginkirjasto", "operator:type": "public", "phone": "09 3108 5041", "source": "local_knowledge", "website": "https://www.helmet.fi/fi-FI/Kirjastot_ja_palvelut/Malminkartanon_kirjasto"}}, {"type": "way", "id": 1079281922, "nodes": [9893730266, 9893730265, 9893730245, 9893730260, 9893730259, 9893730258, 9893730257, 9893730256, 9893730255, 9894240047, 9893730254, 9893730253, 9893730252, 9893730251, 9893730266], "tags": {"addr:city": "Helsinki", "addr:housenumber": "4", "addr:postcode": "00840", "addr:street": "Yliskyl\u00e4n puistokatu", "amenity": "library", "email": "laajasalon_kirjasto@hel.fi", "indoor": "room", "internet_access": "wlan", "level": "1", "name": "Laajasalon kirjasto", "name:fi": "Laajasalon kirjasto", "name:sv": "Deger\u00f6 bibliotek", "opening_hours": "Mo-Th 07:00-21:00; Fr 07:00-19:00; Sa,Su,PH 09:00-15:00", "operator": "Helsingin kaupunki", "phone": "+358 9 3108 5084", "website": "https://www.helmet.fi/fi-FI/Kirjastot_ja_palvelut/Laajasalon_kirjasto", "wheelchair": "yes"}}]}